{"type":"FeatureCollection","features":[{"type":"Feature","properties":{"nome":"Agra","istat":"012001"},"geometry":{"type":"MultiPolygon","coordinates":[[[[8.77777,46.03296],[8.77735,46.02802],[8.77557,46.02808],[8.76732,46.03002],[8.75809,46.03132],[8.75034,46.02929],[8.74979,46.03665],[8.75114,46.0393],[8.75252,46.04004],[8.75873,46.0423],[8.76878,46.04506],[8.77005,46.04466],[8.77369,46.04194],[8.77725,46.03847],[8.77777,46.03296]]]]}},{"type":"Feature","properties":{"nome":"Albizzate","istat":"012002"},"geometry":{"type":"MultiPolygon","coordinates":[[[[8.81022,45.73578],[8.81423,45.72972],[8.81251,45.72876],[8.80572,45.71781],[8.80407,45.71384],[8.80442,45.71096],[8.80055,45.71312],[8.79946,45.71587],[8.79313,45.71664],[8.78632,45.71804],[8.78569,45.72628],[8.78987,45.73161],[8.79949,45.73316],[8.80478,45.73548],[8.80564,45.74156],[8.81108,45.74024],[8.81022,45.73578]]]]}},{"type":"Feature","properties":{"nome":"Angera","istat":"012003"},"geometry":{"type":"MultiPolygon","coordinates":[[[[8.61681,45.7937],[8.62606,45.79371],[8.62612,45.79076],[8.64069,45.77857],[8.64564,45.77724],[8.64097,45.77131],[8.64022,45.76816],[8.64088,45.76524],[8.63821,45.76504],[8.62865,45.77107],[8.61759,45.77608],[8.61229,45.7789],[8.61158,45.78106],[8.60805,45.78032],[8.60348,45.77638],[8.59915,45.76439],[8.60042,45.76279],[8.60284,45.76118],[8.60125,45.75552],[8.60069,45.75529],[8.59976,45.75601],[8.59795,45.75606],[8.59268,45.75538],[8.58575,45.75167],[8.58243,45.74917],[8.56514,45.76639],[8.55732,45.77286],[8.55632,45.77411],[8.55567,45.77499],[8.55227,45.7881],[8.56489,45.78733],[8.57447,45.79057],[8.57585,45.79062],[8.58337,45.78934],[8.59494,45.78618],[8.60063,45.79133],[8.6016,45.79281],[8.60383,45.78867],[8.61071,45.79041],[8.60954,45.79362],[8.61681,45.7937]]]]}},{"type":"Feature","properties":{"nome":"Arcisate","istat":"012004"},"geometry":{"type":"MultiPolygon","coordinates":[[[[8.84803,45.88214],[8.8508,45.88213],[8.85394,45.87928],[8.8546,45.87842],[8.85507,45.87652],[8.85463,45.87294],[8.86101,45.86683],[8.8647,45.86421],[8.86812,45.86346],[8.87152,45.86411],[8.87263,45.86472],[8.87198,45.86586],[8.87334,45.86843],[8.87535,45.87032],[8.8827,45.87207],[8.88721,45.87017],[8.88951,45.86795],[8.8953,45.8456],[8.89216,45.84276],[8.88334,45.83644],[8.88423,45.83361],[8.88362,45.83057],[8.88068,45.82984],[8.87664,45.82962],[8.87434,45.83018],[8.87087,45.83027],[8.86884,45.82898],[8.86853,45.82636],[8.86733,45.8266],[8.86633,45.82774],[8.86434,45.83401],[8.86411,45.83637],[8.86447,45.83956],[8.8606,45.84347],[8.8576,45.84773],[8.85693,45.85031],[8.85731,45.85277],[8.85694,45.85566],[8.85182,45.86408],[8.84683,45.8673],[8.84527,45.86801],[8.84445,45.86777],[8.83991,45.8705],[8.83894,45.87188],[8.84464,45.88413],[8.84803,45.88214]]]]}},{"type":"Feature","properties":{"nome":"Arsago Seprio","istat":"012005"},"geometry":{"type":"MultiPolygon","coordinates":[[[[8.72549,45.72119],[8.72695,45.71965],[8.74094,45.71145],[8.74457,45.71078],[8.74688,45.71088],[8.74332,45.71014],[8.74104,45.70623],[8.74258,45.70416],[8.74453,45.70382],[8.74536,45.70319],[8.75084,45.69433],[8.75064,45.69331],[8.75202,45.69104],[8.75806,45.68739],[8.76307,45.68518],[8.76251,45.68347],[8.75398,45.67577],[8.74205,45.67865],[8.72904,45.67555],[8.72729,45.67699],[8.72357,45.68981],[8.72356,45.6918],[8.72124,45.69692],[8.71461,45.70309],[8.70993,45.70807],[8.7109,45.71014],[8.71427,45.71379],[8.71547,45.71441],[8.72447,45.72205],[8.72549,45.72119]]]]}},{"type":"Feature","properties":{"nome":"Azzate","istat":"012006"},"geometry":{"type":"MultiPolygon","coordinates":[[[[8.79284,45.79642],[8.7944,45.79176],[8.7957,45.78939],[8.79746,45.78906],[8.79975,45.78764],[8.80424,45.78194],[8.80639,45.77373],[8.80642,45.77128],[8.80625,45.771],[8.80116,45.77248],[8.79438,45.77186],[8.7859,45.76655],[8.77756,45.75754],[8.77413,45.76291],[8.78326,45.77076],[8.7835,45.77689],[8.78182,45.77793],[8.7811,45.7804],[8.78369,45.78264],[8.78513,45.79313],[8.7843,45.79642],[8.79225,45.79773],[8.79284,45.79642]]]]}},{"type":"Feature","properties":{"nome":"Azzio","istat":"012007"},"geometry":{"type":"MultiPolygon","coordinates":[[[[8.71531,45.89514],[8.7125,45.89497],[8.71317,45.89135],[8.71426,45.89027],[8.71723,45.88967],[8.72545,45.88941],[8.70445,45.8807],[8.70322,45.87967],[8.69809,45.88168],[8.69652,45.88162],[8.69729,45.89122],[8.69503,45.89181],[8.70104,45.8932],[8.7155,45.89812],[8.71531,45.89514]]]]}},{"type":"Feature","properties":{"nome":"Barasso","istat":"012008"},"geometry":{"type":"MultiPolygon","coordinates":[[[[8.7568,45.86952],[8.76632,45.86862],[8.76483,45.85412],[8.76484,45.85281],[8.76565,45.85014],[8.76537,45.84742],[8.76436,45.84332],[8.76093,45.83853],[8.75734,45.83212],[8.75722,45.83168],[8.7578,45.83089],[8.75224,45.82967],[8.74501,45.83342],[8.74794,45.83408],[8.7507,45.83593],[8.75051,45.84792],[8.75217,45.85147],[8.75332,45.853],[8.75486,45.85725],[8.75607,45.86271],[8.75557,45.86404],[8.75476,45.86476],[8.75352,45.86867],[8.75383,45.86977],[8.7568,45.86952]]]]}},{"type":"Feature","properties":{"nome":"Bedero Valcuvia","istat":"012010"},"geometry":{"type":"MultiPolygon","coordinates":[[[[8.80353,45.92054],[8.80767,45.91629],[8.81016,45.91086],[8.80857,45.90891],[8.80581,45.90902],[8.8014,45.90593],[8.80229,45.90398],[8.80272,45.89857],[8.79298,45.90089],[8.78808,45.90866],[8.7903,45.90866],[8.79056,45.90976],[8.79027,45.91139],[8.78781,45.91528],[8.78805,45.91664],[8.79049,45.91905],[8.79441,45.92155],[8.80185,45.92195],[8.80353,45.92054]]]]}},{"type":"Feature","properties":{"nome":"Besano","istat":"012011"},"geometry":{"type":"MultiPolygon","coordinates":[[[[8.89855,45.89568],[8.90161,45.89659],[8.91488,45.89817],[8.92069,45.90109],[8.92226,45.90079],[8.9237,45.89838],[8.92203,45.89418],[8.92065,45.89372],[8.91544,45.89465],[8.9117,45.89393],[8.90741,45.89233],[8.90384,45.88919],[8.89165,45.87659],[8.89006,45.87253],[8.88661,45.87609],[8.88528,45.87804],[8.88308,45.88693],[8.88849,45.89417],[8.89855,45.89568]]]]}},{"type":"Feature","properties":{"nome":"Besnate","istat":"012012"},"geometry":{"type":"MultiPolygon","coordinates":[[[[8.75922,45.71468],[8.76317,45.71485],[8.76826,45.71442],[8.77466,45.71186],[8.77942,45.71234],[8.77788,45.70929],[8.77785,45.70505],[8.78102,45.69807],[8.77707,45.689],[8.76307,45.68518],[8.75806,45.68739],[8.75202,45.69104],[8.75064,45.69331],[8.75084,45.69433],[8.74536,45.70319],[8.74453,45.70382],[8.74258,45.70416],[8.74104,45.70623],[8.74332,45.71014],[8.74688,45.71088],[8.75556,45.71785],[8.75922,45.71468]]]]}},{"type":"Feature","properties":{"nome":"Besozzo","istat":"012013"},"geometry":{"type":"MultiPolygon","coordinates":[[[[8.66636,45.86793],[8.66786,45.86781],[8.66769,45.86746],[8.67102,45.86273],[8.67508,45.85832],[8.68578,45.85364],[8.68797,45.85336],[8.69203,45.85113],[8.69278,45.85026],[8.6943,45.8455],[8.69752,45.84474],[8.68105,45.83515],[8.67115,45.83506],[8.66559,45.83872],[8.66222,45.83974],[8.66052,45.83979],[8.65706,45.83902],[8.65328,45.8362],[8.64474,45.83708],[8.64479,45.83918],[8.64391,45.83959],[8.63826,45.84032],[8.63685,45.84254],[8.63582,45.84266],[8.62916,45.84125],[8.62567,45.8402],[8.62241,45.83864],[8.59505,45.83852],[8.59462,45.8448],[8.62273,45.84463],[8.63755,45.8468],[8.64231,45.85268],[8.64315,45.85474],[8.6417,45.85764],[8.64021,45.8582],[8.63704,45.8607],[8.63615,45.86215],[8.6359,45.86282],[8.63798,45.86709],[8.64013,45.86726],[8.6535,45.86513],[8.66381,45.86839],[8.66636,45.86793]]]]}},{"type":"Feature","properties":{"nome":"Biandronno","istat":"012014"},"geometry":{"type":"MultiPolygon","coordinates":[[[[8.71798,45.83344],[8.74237,45.81309],[8.74018,45.81161],[8.72595,45.80431],[8.71413,45.79769],[8.71304,45.79651],[8.7127,45.79476],[8.7016,45.79519],[8.70064,45.7961],[8.70103,45.79802],[8.70048,45.80047],[8.69652,45.80937],[8.69244,45.81426],[8.699,45.82186],[8.70584,45.83102],[8.71185,45.83252],[8.71691,45.83433],[8.71798,45.83344]]]]}},{"type":"Feature","properties":{"nome":"Bisuschio","istat":"012015"},"geometry":{"type":"MultiPolygon","coordinates":[[[[8.85593,45.89578],[8.85918,45.89523],[8.86987,45.89152],[8.87172,45.88976],[8.87473,45.88841],[8.88088,45.88693],[8.88308,45.88693],[8.88528,45.87804],[8.88661,45.87609],[8.89006,45.87253],[8.88951,45.86795],[8.88721,45.87017],[8.8827,45.87207],[8.87535,45.87032],[8.87334,45.86843],[8.87198,45.86586],[8.87263,45.86472],[8.87152,45.86411],[8.86812,45.86346],[8.86503,45.86412],[8.86101,45.86683],[8.85463,45.87294],[8.85507,45.87652],[8.8546,45.87842],[8.85394,45.87928],[8.8508,45.88213],[8.84803,45.88214],[8.84706,45.88293],[8.84759,45.88637],[8.85159,45.89609],[8.85262,45.89741],[8.85593,45.89578]]]]}},{"type":"Feature","properties":{"nome":"Bodio Lomnago","istat":"012016"},"geometry":{"type":"MultiPolygon","coordinates":[[[[8.76186,45.80112],[8.758,45.79371],[8.75911,45.79179],[8.7618,45.79043],[8.76217,45.78931],[8.76154,45.7834],[8.76224,45.78147],[8.76175,45.78018],[8.75786,45.7765],[8.75347,45.77573],[8.74738,45.77528],[8.74454,45.77594],[8.74145,45.77877],[8.74375,45.78616],[8.74339,45.78942],[8.74049,45.78987],[8.74586,45.79792],[8.75263,45.80558],[8.76186,45.80112]]]]}},{"type":"Feature","properties":{"nome":"Brebbia","istat":"012017"},"geometry":{"type":"MultiPolygon","coordinates":[[[[8.63826,45.84032],[8.64391,45.83959],[8.64479,45.83918],[8.64474,45.83708],[8.65328,45.8362],[8.65706,45.83902],[8.66052,45.83979],[8.66222,45.83974],[8.66559,45.83872],[8.67115,45.83506],[8.65989,45.82765],[8.65864,45.82081],[8.65799,45.81992],[8.64483,45.81615],[8.64026,45.81552],[8.63521,45.82617],[8.63506,45.82703],[8.63576,45.8283],[8.63548,45.82994],[8.63188,45.83331],[8.63094,45.83358],[8.5952,45.83361],[8.59505,45.83852],[8.62241,45.83864],[8.62567,45.8402],[8.62916,45.84125],[8.63582,45.84266],[8.63685,45.84254],[8.63826,45.84032]]]]}},{"type":"Feature","properties":{"nome":"Brenta","istat":"012019"},"geometry":{"type":"MultiPolygon","coordinates":[[[[8.67801,45.92383],[8.68926,45.92255],[8.68919,45.91562],[8.6945,45.90387],[8.70104,45.8932],[8.69503,45.89181],[8.68093,45.89072],[8.68179,45.8969],[8.68157,45.89947],[8.67758,45.91583],[8.67485,45.92058],[8.67684,45.92417],[8.67801,45.92383]]]]}},{"type":"Feature","properties":{"nome":"Brezzo di Bedero","istat":"012020"},"geometry":{"type":"MultiPolygon","coordinates":[[[[8.71577,45.98657],[8.73204,45.98417],[8.74327,45.97741],[8.74549,45.97553],[8.74755,45.9718],[8.74779,45.9691],[8.74321,45.96906],[8.73721,45.96818],[8.73591,45.96752],[8.73208,45.96452],[8.72894,45.95686],[8.72705,45.95528],[8.72497,45.95804],[8.72656,45.95946],[8.72854,45.96319],[8.72726,45.96425],[8.72277,45.96628],[8.71553,45.96547],[8.70236,45.97001],[8.70192,45.97052],[8.70223,45.97088],[8.70416,45.97153],[8.70118,45.97329],[8.6823,45.98689],[8.7007,45.99994],[8.71349,45.98916],[8.71577,45.98657]]]]}},{"type":"Feature","properties":{"nome":"Brinzio","istat":"012021"},"geometry":{"type":"MultiPolygon","coordinates":[[[[8.80939,45.89375],[8.81715,45.8881],[8.81133,45.8826],[8.80667,45.88335],[8.80611,45.88376],[8.80392,45.8838],[8.79732,45.88121],[8.79395,45.8794],[8.79226,45.87724],[8.79554,45.87508],[8.78881,45.87152],[8.78404,45.87072],[8.77631,45.87359],[8.77856,45.87505],[8.77973,45.8763],[8.77969,45.88274],[8.77795,45.89028],[8.77284,45.89521],[8.78485,45.90001],[8.79111,45.90117],[8.80272,45.89857],[8.80939,45.89375]]]]}},{"type":"Feature","properties":{"nome":"Brissago-Valtravaglia","istat":"012022"},"geometry":{"type":"MultiPolygon","coordinates":[[[[8.74779,45.9691],[8.75039,45.9673],[8.75387,45.96794],[8.75707,45.96174],[8.74774,45.95732],[8.75077,45.95185],[8.75109,45.94808],[8.75041,45.94471],[8.74952,45.94453],[8.74701,45.94512],[8.74585,45.9448],[8.73988,45.94272],[8.73501,45.94035],[8.7319,45.93223],[8.73147,45.92975],[8.72559,45.92957],[8.72729,45.93277],[8.72715,45.93491],[8.72666,45.93557],[8.72482,45.93618],[8.72038,45.94319],[8.71973,45.94588],[8.71994,45.94791],[8.72534,45.94857],[8.73,45.95175],[8.72894,45.95686],[8.73208,45.96452],[8.73325,45.9657],[8.73721,45.96818],[8.74321,45.96906],[8.74779,45.9691]]]]}},{"type":"Feature","properties":{"nome":"Brunello","istat":"012023"},"geometry":{"type":"MultiPolygon","coordinates":[[[[8.80275,45.77187],[8.80625,45.771],[8.81065,45.77051],[8.81265,45.76667],[8.81236,45.76484],[8.80407,45.76572],[8.79765,45.75964],[8.7925,45.76045],[8.7859,45.76655],[8.79438,45.77186],[8.80116,45.77248],[8.80275,45.77187]]]]}},{"type":"Feature","properties":{"nome":"Brusimpiano","istat":"012024"},"geometry":{"type":"MultiPolygon","coordinates":[[[[8.89712,45.95178],[8.89853,45.94738],[8.89872,45.94516],[8.89772,45.94294],[8.89337,45.93637],[8.89251,45.93396],[8.89306,45.93134],[8.89826,45.92533],[8.89247,45.92111],[8.88342,45.92951],[8.88169,45.93172],[8.87804,45.93508],[8.87673,45.93478],[8.87228,45.9324],[8.86504,45.93007],[8.8621,45.92958],[8.86231,45.93353],[8.86642,45.93727],[8.87181,45.94042],[8.8706,45.94527],[8.87085,45.94573],[8.87284,45.94795],[8.87741,45.95065],[8.88108,45.95168],[8.88302,45.9531],[8.88286,45.95656],[8.89427,45.95847],[8.89719,45.95382],[8.89712,45.95178]]]]}},{"type":"Feature","properties":{"nome":"Buguggiate","istat":"012025"},"geometry":{"type":"MultiPolygon","coordinates":[[[[8.79537,45.79859],[8.80302,45.7925],[8.81527,45.78459],[8.82055,45.78502],[8.81875,45.78354],[8.8158,45.77886],[8.81533,45.77741],[8.81605,45.77611],[8.8159,45.77555],[8.81065,45.77051],[8.80625,45.771],[8.80656,45.77175],[8.80639,45.77373],[8.80424,45.78194],[8.79975,45.78764],[8.79746,45.78906],[8.7957,45.78939],[8.7944,45.79176],[8.79225,45.79773],[8.79537,45.79859]]]]}},{"type":"Feature","properties":{"nome":"Busto Arsizio","istat":"012026"},"geometry":{"type":"MultiPolygon","coordinates":[[[[8.84704,45.64246],[8.85161,45.64216],[8.85257,45.63794],[8.85893,45.63886],[8.85864,45.6338],[8.85765,45.62788],[8.85823,45.62594],[8.86848,45.61983],[8.87946,45.61672],[8.88012,45.61239],[8.87423,45.60174],[8.87082,45.59759],[8.86991,45.59681],[8.86409,45.5949],[8.86612,45.59285],[8.86782,45.59202],[8.86872,45.59023],[8.87295,45.58519],[8.87392,45.5808],[8.87088,45.57809],[8.863,45.57455],[8.8488,45.57006],[8.84298,45.57133],[8.84149,45.57127],[8.83999,45.57068],[8.837,45.56846],[8.83618,45.57056],[8.83468,45.57789],[8.82527,45.58165],[8.8208,45.5809],[8.81509,45.58767],[8.81105,45.59328],[8.80757,45.59925],[8.80564,45.60352],[8.80493,45.60758],[8.80571,45.6119],[8.81434,45.62495],[8.8169,45.6255],[8.8207,45.63055],[8.81915,45.63134],[8.82488,45.63827],[8.82981,45.64064],[8.84571,45.64265],[8.84704,45.64246]]]]}},{"type":"Feature","properties":{"nome":"Cadegliano-Viconago","istat":"012027"},"geometry":{"type":"MultiPolygon","coordinates":[[[[8.83128,45.98798],[8.83704,45.98482],[8.84772,45.97506],[8.84497,45.974],[8.84405,45.97255],[8.84657,45.9661],[8.85252,45.95374],[8.85712,45.94611],[8.86037,45.94325],[8.85467,45.94033],[8.85068,45.9437],[8.84567,45.94919],[8.84218,45.95131],[8.83571,45.9536],[8.83096,45.95411],[8.82662,45.95616],[8.81684,45.96224],[8.80279,45.96757],[8.80695,45.96795],[8.80969,45.9698],[8.80964,45.97699],[8.80909,45.9819],[8.81339,45.98243],[8.81758,45.98181],[8.81831,45.98204],[8.82083,45.98623],[8.82111,45.98754],[8.83128,45.98798]]]]}},{"type":"Feature","properties":{"nome":"Cadrezzate con Osmate","istat":"012143"},"geometry":{"type":"MultiPolygon","coordinates":[[[[8.64476,45.81399],[8.64655,45.80956],[8.65012,45.80335],[8.65342,45.79933],[8.67394,45.78826],[8.66759,45.7854],[8.66929,45.78218],[8.67014,45.77684],[8.66972,45.77631],[8.66918,45.77596],[8.66275,45.77539],[8.65264,45.77695],[8.64564,45.77724],[8.64069,45.77857],[8.62612,45.79076],[8.62603,45.79786],[8.62974,45.80361],[8.63014,45.80408],[8.63491,45.80571],[8.63609,45.80536],[8.63717,45.80554],[8.64173,45.80846],[8.64027,45.81382],[8.64476,45.81399]]]]}},{"type":"Feature","properties":{"nome":"Cairate","istat":"012029"},"geometry":{"type":"MultiPolygon","coordinates":[[[[8.85872,45.70269],[8.86858,45.70393],[8.87453,45.69965],[8.8768,45.69397],[8.88046,45.6917],[8.88193,45.69102],[8.88827,45.68991],[8.8915,45.69112],[8.89467,45.6846],[8.89631,45.6802],[8.8841,45.67706],[8.88277,45.67774],[8.88199,45.67892],[8.88156,45.67964],[8.88157,45.68092],[8.87359,45.68034],[8.85598,45.67993],[8.84571,45.67049],[8.84673,45.66688],[8.84332,45.66646],[8.83399,45.68484],[8.83301,45.69015],[8.83434,45.69404],[8.83343,45.69679],[8.83343,45.70528],[8.83737,45.70265],[8.83973,45.70209],[8.84363,45.70192],[8.85124,45.70476],[8.85134,45.70618],[8.85872,45.70269]]]]}},{"type":"Feature","properties":{"nome":"Cantello","istat":"012030"},"geometry":{"type":"MultiPolygon","coordinates":[[[[8.8953,45.8456],[8.90415,45.8419],[8.91535,45.8435],[8.91245,45.83028],[8.90846,45.82967],[8.90774,45.82927],[8.90721,45.82809],[8.90756,45.82681],[8.90913,45.82623],[8.90973,45.82546],[8.90988,45.82431],[8.90934,45.82074],[8.907,45.81537],[8.89696,45.81292],[8.89312,45.81112],[8.88757,45.80928],[8.8846,45.80946],[8.88455,45.81039],[8.88491,45.81056],[8.88462,45.81097],[8.87499,45.81252],[8.86776,45.81438],[8.86884,45.82898],[8.87087,45.83027],[8.87434,45.83018],[8.87664,45.82962],[8.88068,45.82984],[8.88362,45.83057],[8.88423,45.83361],[8.88334,45.83644],[8.89216,45.84276],[8.8953,45.8456]]]]}},{"type":"Feature","properties":{"nome":"Caravate","istat":"012031"},"geometry":{"type":"MultiPolygon","coordinates":[[[[8.66602,45.88961],[8.66963,45.8879],[8.67004,45.8798],[8.66896,45.87563],[8.66459,45.87161],[8.66381,45.86839],[8.6535,45.86513],[8.64013,45.86726],[8.63798,45.86709],[8.63853,45.87239],[8.64154,45.87961],[8.6414,45.88135],[8.63917,45.88485],[8.64446,45.88726],[8.65008,45.88707],[8.66395,45.89084],[8.6646,45.89092],[8.66602,45.88961]]]]}},{"type":"Feature","properties":{"nome":"Cardano al Campo","istat":"012032"},"geometry":{"type":"MultiPolygon","coordinates":[[[[8.77076,45.6574],[8.77552,45.65566],[8.78067,45.65206],[8.78174,45.64298],[8.78255,45.64161],[8.78386,45.64068],[8.78725,45.63964],[8.78673,45.63836],[8.78444,45.6366],[8.77581,45.63451],[8.76469,45.63369],[8.74338,45.63497],[8.7306,45.63371],[8.72508,45.64151],[8.72346,45.64477],[8.74133,45.65028],[8.73981,45.6534],[8.74599,45.65538],[8.74894,45.6557],[8.75883,45.6584],[8.76408,45.6603],[8.77076,45.6574]]]]}},{"type":"Feature","properties":{"nome":"Carnago","istat":"012033"},"geometry":{"type":"MultiPolygon","coordinates":[[[[8.85316,45.73105],[8.85369,45.72929],[8.85374,45.72095],[8.85163,45.71285],[8.85124,45.70476],[8.84363,45.70192],[8.83973,45.70209],[8.83737,45.70265],[8.83343,45.70528],[8.82901,45.7059],[8.8238,45.70898],[8.82654,45.71307],[8.82698,45.71541],[8.82533,45.72448],[8.82402,45.72651],[8.82008,45.72928],[8.83113,45.72785],[8.84526,45.73077],[8.84689,45.73185],[8.84715,45.73367],[8.84483,45.73488],[8.84864,45.73561],[8.85316,45.73105]]]]}},{"type":"Feature","properties":{"nome":"Caronno Pertusella","istat":"012034"},"geometry":{"type":"MultiPolygon","coordinates":[[[[9.03807,45.61091],[9.04296,45.61049],[9.05193,45.60892],[9.05758,45.60882],[9.05811,45.60952],[9.06132,45.60769],[9.06065,45.60435],[9.06038,45.60017],[9.06321,45.59765],[9.06443,45.58201],[9.06299,45.58034],[9.05771,45.5814],[9.05083,45.58059],[9.05013,45.58015],[9.04955,45.57747],[9.046,45.57733],[9.02693,45.58616],[9.02667,45.58852],[9.02567,45.58847],[9.03079,45.59685],[9.02851,45.59995],[9.02763,45.60048],[9.0268,45.60288],[9.02674,45.60442],[9.02761,45.60581],[9.0306,45.60845],[9.03807,45.61091]]]]}},{"type":"Feature","properties":{"nome":"Caronno Varesino","istat":"012035"},"geometry":{"type":"MultiPolygon","coordinates":[[[[8.84585,45.7525],[8.84717,45.75028],[8.84562,45.74896],[8.84433,45.74714],[8.8441,45.73591],[8.84483,45.73488],[8.84715,45.73367],[8.84689,45.73185],[8.84526,45.73077],[8.83113,45.72785],[8.81423,45.72972],[8.81022,45.73578],[8.81108,45.74024],[8.81439,45.74027],[8.82234,45.74462],[8.82438,45.75144],[8.83253,45.75345],[8.84477,45.75374],[8.84598,45.75343],[8.84585,45.7525]]]]}},{"type":"Feature","properties":{"nome":"Casale Litta","istat":"012036"},"geometry":{"type":"MultiPolygon","coordinates":[[[[8.73346,45.7804],[8.74204,45.77796],[8.74454,45.77594],[8.74757,45.77165],[8.74986,45.76995],[8.75252,45.76861],[8.75678,45.76445],[8.75198,45.76139],[8.74722,45.75744],[8.74016,45.74932],[8.73703,45.74406],[8.73548,45.73944],[8.73533,45.7375],[8.73118,45.73827],[8.72655,45.74161],[8.72233,45.74514],[8.71964,45.74797],[8.71683,45.75185],[8.71664,45.75557],[8.71694,45.75669],[8.71555,45.75949],[8.71354,45.76167],[8.71523,45.7706],[8.7124,45.77497],[8.71087,45.77607],[8.71079,45.77689],[8.71211,45.78413],[8.72238,45.78355],[8.72881,45.7824],[8.73346,45.7804]]]]}},{"type":"Feature","properties":{"nome":"Casalzuigno","istat":"012037"},"geometry":{"type":"MultiPolygon","coordinates":[[[[8.72144,45.92228],[8.72576,45.91939],[8.71994,45.90457],[8.7174,45.89917],[8.7155,45.89812],[8.70104,45.8932],[8.6945,45.90387],[8.68919,45.91562],[8.68926,45.92255],[8.69386,45.9221],[8.6994,45.92318],[8.7085,45.92811],[8.71503,45.9306],[8.72254,45.92876],[8.72144,45.92228]]]]}},{"type":"Feature","properties":{"nome":"Casciago","istat":"012038"},"geometry":{"type":"MultiPolygon","coordinates":[[[[8.77995,45.84589],[8.78063,45.84243],[8.78547,45.83904],[8.79061,45.83456],[8.79191,45.83257],[8.78604,45.82226],[8.78345,45.81998],[8.77327,45.81944],[8.76939,45.8199],[8.76535,45.82178],[8.76103,45.8232],[8.75499,45.82108],[8.75224,45.82967],[8.7578,45.83089],[8.76011,45.8302],[8.77388,45.82901],[8.77561,45.8291],[8.77676,45.8296],[8.77749,45.83062],[8.77759,45.83169],[8.77565,45.83584],[8.77341,45.84282],[8.7753,45.84561],[8.77995,45.84589]]]]}},{"type":"Feature","properties":{"nome":"Casorate Sempione","istat":"012039"},"geometry":{"type":"MultiPolygon","coordinates":[[[[8.74205,45.67865],[8.75398,45.67577],[8.75486,45.67518],[8.76188,45.66858],[8.76475,45.6624],[8.76408,45.6603],[8.75883,45.6584],[8.74894,45.6557],[8.74599,45.65538],[8.73981,45.6534],[8.74133,45.65028],[8.72895,45.6467],[8.72612,45.65607],[8.72507,45.66497],[8.7282,45.66751],[8.7296,45.66999],[8.72988,45.67197],[8.72904,45.67555],[8.74205,45.67865]]]]}},{"type":"Feature","properties":{"nome":"Cassano Magnago","istat":"012040"},"geometry":{"type":"MultiPolygon","coordinates":[[[[8.83343,45.69679],[8.83434,45.69404],[8.83301,45.69015],[8.8343,45.68378],[8.84332,45.66646],[8.84673,45.66688],[8.84629,45.66007],[8.84949,45.65505],[8.85072,45.65063],[8.84965,45.64786],[8.84571,45.64265],[8.83224,45.64079],[8.82697,45.64705],[8.80812,45.67514],[8.80651,45.68049],[8.80661,45.68457],[8.81249,45.68859],[8.81924,45.68867],[8.82325,45.69132],[8.82425,45.69243],[8.82584,45.69427],[8.82879,45.6992],[8.82949,45.70495],[8.82901,45.7059],[8.83343,45.70528],[8.83343,45.69679]]]]}},{"type":"Feature","properties":{"nome":"Cassano Valcuvia","istat":"012041"},"geometry":{"type":"MultiPolygon","coordinates":[[[[8.77145,45.9421],[8.77229,45.94192],[8.77825,45.93671],[8.77501,45.92908],[8.77082,45.92372],[8.76637,45.92008],[8.7648,45.91995],[8.76446,45.92136],[8.75735,45.92469],[8.75227,45.92589],[8.74412,45.92651],[8.74277,45.92854],[8.7484,45.93019],[8.74986,45.93158],[8.74949,45.93362],[8.75174,45.93819],[8.75514,45.94027],[8.7657,45.94184],[8.77145,45.9421]]]]}},{"type":"Feature","properties":{"nome":"Castellanza","istat":"012042"},"geometry":{"type":"MultiPolygon","coordinates":[[[[8.92713,45.62589],[8.93243,45.62646],[8.93669,45.62352],[8.9259,45.6195],[8.92335,45.61593],[8.92425,45.61522],[8.92242,45.61169],[8.91577,45.60733],[8.90964,45.60525],[8.89974,45.60536],[8.8784,45.59743],[8.87383,45.59418],[8.86782,45.59202],[8.86612,45.59285],[8.86409,45.5949],[8.86991,45.59681],[8.87423,45.60174],[8.88012,45.61239],[8.87946,45.61672],[8.88658,45.61468],[8.89002,45.61458],[8.89557,45.61596],[8.89621,45.61717],[8.89436,45.62043],[8.89751,45.62212],[8.89873,45.62233],[8.90355,45.62164],[8.91534,45.62152],[8.92428,45.62382],[8.92713,45.62589]]]]}},{"type":"Feature","properties":{"nome":"Castello Cabiaglio","istat":"012043"},"geometry":{"type":"MultiPolygon","coordinates":[[[[8.77244,45.90345],[8.77734,45.9024],[8.77284,45.89521],[8.77795,45.89028],[8.77969,45.88274],[8.77973,45.8763],[8.77856,45.87505],[8.77631,45.87359],[8.77314,45.86961],[8.76632,45.86862],[8.75383,45.86977],[8.75493,45.87675],[8.75317,45.88217],[8.74406,45.88837],[8.74329,45.88914],[8.74341,45.89115],[8.75242,45.89596],[8.75982,45.89757],[8.76107,45.89815],[8.76301,45.90035],[8.76756,45.90257],[8.77069,45.90357],[8.77244,45.90345]]]]}},{"type":"Feature","properties":{"nome":"Castelseprio","istat":"012044"},"geometry":{"type":"MultiPolygon","coordinates":[[[[8.85638,45.73091],[8.86302,45.73061],[8.86513,45.7241],[8.8669,45.72243],[8.87179,45.72077],[8.8731,45.72083],[8.87245,45.71366],[8.872,45.71274],[8.86905,45.71025],[8.86718,45.70757],[8.86754,45.70579],[8.86858,45.70393],[8.85872,45.70269],[8.85134,45.70618],[8.85163,45.71285],[8.85374,45.72095],[8.85369,45.72929],[8.85316,45.73105],[8.85638,45.73091]]]]}},{"type":"Feature","properties":{"nome":"Castelveccana","istat":"012045"},"geometry":{"type":"MultiPolygon","coordinates":[[[[8.66963,45.95511],[8.67113,45.95648],[8.67291,45.9568],[8.68692,45.95555],[8.68948,45.95357],[8.6919,45.9493],[8.71292,45.93178],[8.71503,45.9306],[8.7085,45.92811],[8.70049,45.92359],[8.69386,45.9221],[8.67801,45.92383],[8.6613,45.92736],[8.65952,45.92745],[8.65116,45.92658],[8.64578,45.92436],[8.63712,45.92551],[8.61688,45.93838],[8.6541,45.96609],[8.66963,45.95511]]]]}},{"type":"Feature","properties":{"nome":"Castiglione Olona","istat":"012046"},"geometry":{"type":"MultiPolygon","coordinates":[[[[8.85924,45.7717],[8.86797,45.76673],[8.87309,45.7643],[8.87892,45.7634],[8.88114,45.76025],[8.88135,45.75489],[8.88624,45.75529],[8.88751,45.75396],[8.88728,45.75284],[8.88232,45.7466],[8.88034,45.74205],[8.87881,45.73636],[8.87547,45.74117],[8.86496,45.7458],[8.85905,45.74611],[8.84717,45.75028],[8.84889,45.75215],[8.84938,45.75387],[8.84831,45.7606],[8.85239,45.76719],[8.85602,45.77135],[8.85924,45.7717]]]]}},{"type":"Feature","properties":{"nome":"Castronno","istat":"012047"},"geometry":{"type":"MultiPolygon","coordinates":[[[[8.80407,45.76572],[8.81236,45.76484],[8.81732,45.75637],[8.82219,45.75198],[8.82438,45.75144],[8.82234,45.74462],[8.81439,45.74027],[8.81108,45.74024],[8.80564,45.74156],[8.80353,45.74613],[8.80042,45.7559],[8.79765,45.75964],[8.80407,45.76572]]]]}},{"type":"Feature","properties":{"nome":"Cavaria con Premezzo","istat":"012048"},"geometry":{"type":"MultiPolygon","coordinates":[[[[8.79514,45.69837],[8.80788,45.69961],[8.81059,45.69822],[8.81183,45.69621],[8.81292,45.69331],[8.81249,45.68859],[8.80661,45.68457],[8.80534,45.68459],[8.8015,45.68598],[8.80076,45.68666],[8.80102,45.68771],[8.8007,45.68819],[8.79707,45.68952],[8.79277,45.68917],[8.78803,45.68963],[8.77998,45.6887],[8.77707,45.689],[8.78213,45.7001],[8.78395,45.70134],[8.78455,45.70165],[8.79027,45.70019],[8.79514,45.69837]]]]}},{"type":"Feature","properties":{"nome":"Cazzago Brabbia","istat":"012049"},"geometry":{"type":"MultiPolygon","coordinates":[[[[8.74586,45.79792],[8.74049,45.78987],[8.73413,45.79217],[8.71376,45.79168],[8.7127,45.79476],[8.71304,45.79651],[8.71413,45.79769],[8.72595,45.80431],[8.74018,45.81161],[8.75263,45.80558],[8.74586,45.79792]]]]}},{"type":"Feature","properties":{"nome":"Cislago","istat":"012050"},"geometry":{"type":"MultiPolygon","coordinates":[[[[8.98039,45.67968],[8.98514,45.67046],[8.98523,45.66329],[8.98422,45.65326],[8.97828,45.64817],[8.9812,45.64546],[8.97517,45.6419],[8.97261,45.63787],[8.97059,45.63607],[8.96822,45.63486],[8.96389,45.63415],[8.95302,45.63321],[8.95034,45.6354],[8.95064,45.63587],[8.94811,45.63949],[8.94671,45.64084],[8.94132,45.64067],[8.93836,45.64523],[8.93777,45.64702],[8.9376,45.64889],[8.9399,45.6497],[8.94014,45.65033],[8.93499,45.65242],[8.93322,45.65562],[8.94791,45.66093],[8.95581,45.66169],[8.96594,45.66519],[8.96833,45.66741],[8.97778,45.67982],[8.98039,45.67968]]]]}},{"type":"Feature","properties":{"nome":"Cittiglio","istat":"012051"},"geometry":{"type":"MultiPolygon","coordinates":[[[[8.66316,45.92694],[8.67684,45.92417],[8.67485,45.92058],[8.67758,45.91583],[8.68157,45.89947],[8.68179,45.8969],[8.68093,45.89072],[8.66805,45.88886],[8.66602,45.88961],[8.6646,45.89092],[8.65008,45.88707],[8.64446,45.88726],[8.64289,45.89103],[8.6426,45.89851],[8.64321,45.90338],[8.64605,45.91238],[8.64738,45.91871],[8.64721,45.92116],[8.64578,45.92436],[8.65116,45.92658],[8.65952,45.92745],[8.66316,45.92694]]]]}},{"type":"Feature","properties":{"nome":"Clivio","istat":"012052"},"geometry":{"type":"MultiPolygon","coordinates":[[[[8.9456,45.8672],[8.94411,45.86564],[8.94103,45.86413],[8.93654,45.86292],[8.93334,45.86134],[8.919,45.84771],[8.91535,45.8435],[8.90415,45.8419],[8.90417,45.84496],[8.90865,45.84747],[8.91856,45.85869],[8.91883,45.86098],[8.91836,45.86187],[8.91829,45.86337],[8.9232,45.8657],[8.93264,45.86691],[8.93409,45.87006],[8.94033,45.86897],[8.94254,45.87027],[8.94306,45.87017],[8.9456,45.8672]]]]}},{"type":"Feature","properties":{"nome":"Cocquio-Trevisago","istat":"012053"},"geometry":{"type":"MultiPolygon","coordinates":[[[[8.69809,45.88168],[8.70322,45.87967],[8.70181,45.87635],[8.70308,45.8754],[8.72065,45.87117],[8.72971,45.87187],[8.73536,45.87384],[8.73748,45.87283],[8.72563,45.86702],[8.70647,45.85433],[8.6943,45.8455],[8.69249,45.85078],[8.68797,45.85336],[8.68578,45.85364],[8.67508,45.85832],[8.67102,45.86273],[8.66769,45.86746],[8.67932,45.87648],[8.6824,45.87747],[8.6858,45.8778],[8.69652,45.88162],[8.69809,45.88168]]]]}},{"type":"Feature","properties":{"nome":"Comabbio","istat":"012054"},"geometry":{"type":"MultiPolygon","coordinates":[[[[8.68106,45.78626],[8.6805,45.78515],[8.68,45.77697],[8.68316,45.77374],[8.68583,45.77312],[8.69283,45.77476],[8.69475,45.76832],[8.69137,45.76162],[8.68419,45.76068],[8.67544,45.76176],[8.66985,45.76345],[8.66214,45.76758],[8.66275,45.77539],[8.66918,45.77596],[8.67014,45.77684],[8.66929,45.78218],[8.66759,45.7854],[8.67394,45.78826],[8.68076,45.78926],[8.68106,45.78626]]]]}},{"type":"Feature","properties":{"nome":"Comerio","istat":"012055"},"geometry":{"type":"MultiPolygon","coordinates":[[[[8.74814,45.86955],[8.75383,45.86977],[8.75352,45.86867],[8.75476,45.86476],[8.75587,45.86331],[8.75599,45.86203],[8.75486,45.85725],[8.75332,45.853],[8.75217,45.85147],[8.75051,45.84792],[8.7507,45.83593],[8.74718,45.83381],[8.74501,45.83342],[8.74125,45.83393],[8.7318,45.8411],[8.73064,45.84464],[8.73355,45.85719],[8.73687,45.86319],[8.738,45.8672],[8.74004,45.87181],[8.74814,45.86955]]]]}},{"type":"Feature","properties":{"nome":"Cremenaga","istat":"012056"},"geometry":{"type":"MultiPolygon","coordinates":[[[[8.8097,45.99012],[8.82111,45.98754],[8.82083,45.98623],[8.81831,45.98204],[8.81627,45.98191],[8.81339,45.98243],[8.80909,45.9819],[8.80993,45.97053],[8.80916,45.96925],[8.80614,45.96769],[8.80279,45.96757],[8.80199,45.97084],[8.7988,45.97592],[8.79214,45.97818],[8.78786,45.9782],[8.78192,45.9798],[8.77855,45.98132],[8.77808,45.98194],[8.77834,45.98484],[8.7859,45.98902],[8.78975,45.9883],[8.79211,45.98904],[8.79248,45.98938],[8.79246,45.99158],[8.79285,45.99187],[8.79564,45.99205],[8.8097,45.99012]]]]}},{"type":"Feature","properties":{"nome":"Crosio della Valle","istat":"012057"},"geometry":{"type":"MultiPolygon","coordinates":[[[[8.76244,45.76484],[8.77413,45.76291],[8.77756,45.75754],[8.77482,45.75541],[8.77436,45.7541],[8.77196,45.7538],[8.76631,45.75542],[8.75847,45.76019],[8.75198,45.76139],[8.75678,45.76445],[8.76244,45.76484]]]]}},{"type":"Feature","properties":{"nome":"Cuasso al Monte","istat":"012058"},"geometry":{"type":"MultiPolygon","coordinates":[[[[8.88342,45.92951],[8.89247,45.92111],[8.89368,45.9209],[8.89581,45.91975],[8.89777,45.91759],[8.89793,45.91546],[8.89641,45.91112],[8.89166,45.90318],[8.89084,45.90102],[8.89036,45.89609],[8.88849,45.89417],[8.88308,45.88693],[8.88088,45.88693],[8.87473,45.88841],[8.87172,45.88976],[8.86987,45.89152],[8.85918,45.89523],[8.85593,45.89578],[8.85262,45.89741],[8.85159,45.89609],[8.84759,45.88637],[8.84706,45.88293],[8.84464,45.88413],[8.83821,45.89463],[8.838,45.90164],[8.83978,45.90858],[8.84134,45.91004],[8.84458,45.91168],[8.84928,45.91738],[8.85126,45.92142],[8.85264,45.92818],[8.86504,45.93007],[8.87228,45.9324],[8.87673,45.93478],[8.87804,45.93508],[8.88169,45.93172],[8.88342,45.92951]]]]}},{"type":"Feature","properties":{"nome":"Cugliate-Fabiasco","istat":"012059"},"geometry":{"type":"MultiPolygon","coordinates":[[[[8.82197,45.95332],[8.82327,45.95074],[8.8259,45.9391],[8.83508,45.92806],[8.84646,45.92293],[8.85126,45.92142],[8.84998,45.91871],[8.83365,45.9203],[8.83049,45.92093],[8.8296,45.92145],[8.82875,45.92355],[8.82861,45.92509],[8.82972,45.92671],[8.82959,45.92715],[8.82799,45.92906],[8.82295,45.92968],[8.81944,45.92904],[8.8188,45.93683],[8.81803,45.93882],[8.81497,45.94095],[8.81009,45.94253],[8.79889,45.94803],[8.79684,45.94956],[8.79333,45.9507],[8.79772,45.9545],[8.79531,45.95615],[8.79485,45.95758],[8.8055,45.96056],[8.8063,45.96387],[8.806,45.96551],[8.80279,45.96757],[8.81437,45.96326],[8.82197,45.95332]]]]}},{"type":"Feature","properties":{"nome":"Cunardo","istat":"012060"},"geometry":{"type":"MultiPolygon","coordinates":[[[[8.79684,45.94956],[8.79889,45.94803],[8.81009,45.94253],[8.81497,45.94095],[8.81841,45.93843],[8.81944,45.92904],[8.81654,45.92546],[8.81531,45.9224],[8.81487,45.92073],[8.81612,45.91871],[8.811,45.91738],[8.80635,45.91744],[8.80353,45.92054],[8.79689,45.92556],[8.79779,45.92575],[8.79844,45.92693],[8.79574,45.93328],[8.78439,45.93635],[8.78306,45.93867],[8.78255,45.94276],[8.78352,45.94521],[8.78842,45.94879],[8.79333,45.9507],[8.79684,45.94956]]]]}},{"type":"Feature","properties":{"nome":"Curiglia con Monteviasco","istat":"012061"},"geometry":{"type":"MultiPolygon","coordinates":[[[[8.82093,46.07775],[8.82171,46.07652],[8.82342,46.07535],[8.826,46.07465],[8.84351,46.07455],[8.84714,46.07585],[8.85205,46.07552],[8.85398,46.06909],[8.85452,46.06163],[8.8443,46.04854],[8.83443,46.05135],[8.83085,46.04731],[8.83174,46.0455],[8.83515,46.04373],[8.83233,46.04055],[8.82991,46.04159],[8.82657,46.04604],[8.81854,46.05052],[8.79693,46.05565],[8.79248,46.05515],[8.79724,46.0614],[8.80068,46.0624],[8.80598,46.0649],[8.81307,46.06999],[8.81397,46.07112],[8.81455,46.0722],[8.81476,46.07422],[8.8098,46.07777],[8.81899,46.07807],[8.82093,46.07775]]]]}},{"type":"Feature","properties":{"nome":"Cuveglio","istat":"012062"},"geometry":{"type":"MultiPolygon","coordinates":[[[[8.75242,45.92164],[8.75606,45.9157],[8.76107,45.91001],[8.77014,45.90762],[8.77473,45.90847],[8.77562,45.90807],[8.77828,45.90519],[8.77882,45.90373],[8.77734,45.9024],[8.77213,45.90359],[8.76923,45.90317],[8.76301,45.90035],[8.76107,45.89815],[8.75982,45.89757],[8.75242,45.89596],[8.75069,45.89896],[8.74921,45.9005],[8.7455,45.90139],[8.74148,45.90033],[8.73851,45.90037],[8.73613,45.90085],[8.73515,45.90298],[8.72943,45.90215],[8.72934,45.901],[8.7174,45.89917],[8.71994,45.90457],[8.72576,45.91939],[8.72144,45.92228],[8.72732,45.92163],[8.73296,45.91895],[8.73492,45.91752],[8.73618,45.91529],[8.73578,45.91468],[8.73556,45.91224],[8.73731,45.91033],[8.73836,45.91003],[8.74271,45.91038],[8.74756,45.91594],[8.74533,45.91831],[8.74425,45.91893],[8.74335,45.92028],[8.74293,45.92242],[8.74412,45.92651],[8.75227,45.92589],[8.75242,45.92164]]]]}},{"type":"Feature","properties":{"nome":"Cuvio","istat":"012063"},"geometry":{"type":"MultiPolygon","coordinates":[[[[8.73555,45.90193],[8.73613,45.90085],[8.73961,45.90024],[8.74148,45.90033],[8.7455,45.90139],[8.74921,45.9005],[8.75069,45.89896],[8.75239,45.89613],[8.74341,45.89115],[8.74329,45.88914],[8.75317,45.88217],[8.75493,45.87675],[8.75383,45.86977],[8.74814,45.86955],[8.74004,45.87181],[8.73536,45.87384],[8.7358,45.88558],[8.73434,45.88808],[8.73344,45.88863],[8.73223,45.88919],[8.7272,45.88998],[8.7214,45.88943],[8.71723,45.88967],[8.71426,45.89027],[8.71317,45.89135],[8.7125,45.89497],[8.71531,45.89514],[8.7155,45.89812],[8.7174,45.89917],[8.72934,45.901],[8.72943,45.90215],[8.72994,45.90225],[8.73515,45.90298],[8.73555,45.90193]]]]}},{"type":"Feature","properties":{"nome":"Daverio","istat":"012064"},"geometry":{"type":"MultiPolygon","coordinates":[[[[8.76732,45.77956],[8.78369,45.78264],[8.7811,45.7804],[8.78182,45.77793],[8.7835,45.77689],[8.78326,45.77076],[8.77413,45.76291],[8.76244,45.76484],[8.75678,45.76445],[8.75252,45.76861],[8.74986,45.76995],[8.74757,45.77165],[8.74454,45.77594],[8.74738,45.77528],[8.75347,45.77573],[8.75786,45.7765],[8.76175,45.78018],[8.76224,45.78147],[8.76154,45.7834],[8.76732,45.77956]]]]}},{"type":"Feature","properties":{"nome":"Dumenza","istat":"012065"},"geometry":{"type":"MultiPolygon","coordinates":[[[[8.79248,46.05515],[8.79693,46.05565],[8.81854,46.05052],[8.82657,46.04604],[8.82991,46.04159],[8.82798,46.03332],[8.82701,46.03202],[8.81968,46.02527],[8.8119,46.02353],[8.80594,46.02161],[8.79723,46.01199],[8.79206,46.00498],[8.78999,45.99981],[8.78315,46.00071],[8.78038,46.00181],[8.77985,46.00364],[8.78016,46.00677],[8.77937,46.00854],[8.77201,46.01417],[8.76635,46.02337],[8.76511,46.02843],[8.76572,46.02968],[8.76732,46.03002],[8.77557,46.02808],[8.77735,46.02802],[8.77777,46.03296],[8.77763,46.03701],[8.77725,46.03847],[8.77487,46.04094],[8.77005,46.04466],[8.76768,46.04501],[8.76471,46.04818],[8.76614,46.04948],[8.77626,46.05207],[8.78975,46.05899],[8.79724,46.0614],[8.79248,46.05515]]]]}},{"type":"Feature","properties":{"nome":"Duno","istat":"012066"},"geometry":{"type":"MultiPolygon","coordinates":[[[[8.74068,45.93006],[8.74277,45.92854],[8.74412,45.92651],[8.74293,45.92242],[8.74335,45.92028],[8.74425,45.91893],[8.74533,45.91831],[8.74756,45.91594],[8.74271,45.91038],[8.73836,45.91003],[8.73731,45.91033],[8.73556,45.91224],[8.73578,45.91468],[8.73618,45.91529],[8.73492,45.91752],[8.73296,45.91895],[8.72732,45.92163],[8.72144,45.92228],[8.72254,45.92876],[8.72559,45.92957],[8.74068,45.93006]]]]}},{"type":"Feature","properties":{"nome":"Fagnano Olona","istat":"012067"},"geometry":{"type":"MultiPolygon","coordinates":[[[[8.88157,45.68092],[8.88156,45.67964],[8.88199,45.67892],[8.88277,45.67774],[8.8841,45.67706],[8.89631,45.6802],[8.89865,45.67672],[8.89475,45.6774],[8.88414,45.67494],[8.88688,45.65945],[8.87934,45.6587],[8.85788,45.65439],[8.85701,45.65287],[8.85592,45.64934],[8.85161,45.64216],[8.84571,45.64265],[8.84965,45.64786],[8.85072,45.65063],[8.84949,45.65505],[8.84629,45.66007],[8.84673,45.66688],[8.84571,45.67049],[8.85598,45.67993],[8.87359,45.68034],[8.88157,45.68092]]]]}},{"type":"Feature","properties":{"nome":"Ferno","istat":"012068"},"geometry":{"type":"MultiPolygon","coordinates":[[[[8.72669,45.63356],[8.72781,45.63175],[8.73724,45.6249],[8.75371,45.62144],[8.75614,45.62192],[8.75717,45.62269],[8.7576,45.62419],[8.76463,45.62289],[8.778,45.60988],[8.77826,45.60843],[8.774,45.60631],[8.7699,45.60611],[8.76776,45.60639],[8.73882,45.61051],[8.72375,45.61337],[8.71903,45.61488],[8.71775,45.61733],[8.70921,45.61748],[8.70667,45.62982],[8.7074,45.63073],[8.71848,45.6332],[8.72555,45.63416],[8.72647,45.63414],[8.72669,45.63356]]]]}},{"type":"Feature","properties":{"nome":"Ferrera di Varese","istat":"012069"},"geometry":{"type":"MultiPolygon","coordinates":[[[[8.77953,45.93714],[8.78062,45.93699],[8.78298,45.93556],[8.78629,45.93579],[8.79574,45.93328],[8.7981,45.92808],[8.79825,45.9265],[8.79726,45.92554],[8.7802,45.9269],[8.77812,45.92673],[8.77501,45.92908],[8.77825,45.93671],[8.77953,45.93714]]]]}},{"type":"Feature","properties":{"nome":"Gallarate","istat":"012070"},"geometry":{"type":"MultiPolygon","coordinates":[[[[8.79277,45.68917],[8.79707,45.68952],[8.8007,45.68819],[8.80102,45.68771],[8.80076,45.68666],[8.8015,45.68598],[8.80534,45.68459],[8.80661,45.68457],[8.80651,45.68049],[8.80812,45.67514],[8.82697,45.64705],[8.83224,45.64079],[8.82879,45.64036],[8.82521,45.63854],[8.81915,45.63134],[8.80819,45.63621],[8.80317,45.63684],[8.79774,45.63998],[8.78725,45.63964],[8.78386,45.64068],[8.78255,45.64161],[8.78174,45.64298],[8.78067,45.65206],[8.77552,45.65566],[8.76408,45.6603],[8.76475,45.6624],[8.76188,45.66858],[8.75398,45.67577],[8.76251,45.68347],[8.76307,45.68518],[8.77707,45.689],[8.7819,45.68879],[8.78803,45.68963],[8.79277,45.68917]]]]}},{"type":"Feature","properties":{"nome":"Galliate Lombardo","istat":"012071"},"geometry":{"type":"MultiPolygon","coordinates":[[[[8.78513,45.79313],[8.78369,45.78264],[8.76732,45.77956],[8.76154,45.7834],[8.76225,45.7887],[8.7618,45.79043],[8.75911,45.79179],[8.758,45.79371],[8.76186,45.80112],[8.77136,45.79651],[8.7843,45.79642],[8.78513,45.79313]]]]}},{"type":"Feature","properties":{"nome":"Gavirate","istat":"012072"},"geometry":{"type":"MultiPolygon","coordinates":[[[[8.738,45.8672],[8.73687,45.86319],[8.73355,45.85719],[8.73226,45.85238],[8.73064,45.84464],[8.7318,45.8411],[8.74125,45.83393],[8.74501,45.83342],[8.75224,45.82967],[8.75499,45.82108],[8.74018,45.81161],[8.74237,45.81309],[8.71691,45.83433],[8.70599,45.83427],[8.70308,45.83462],[8.70187,45.83513],[8.70134,45.83558],[8.69752,45.84474],[8.6943,45.8455],[8.70647,45.85433],[8.72563,45.86702],[8.73748,45.87283],[8.74004,45.87181],[8.738,45.8672]]]]}},{"type":"Feature","properties":{"nome":"Gazzada Schianno","istat":"012073"},"geometry":{"type":"MultiPolygon","coordinates":[[[[8.83436,45.79509],[8.84581,45.78267],[8.85113,45.77936],[8.85307,45.77255],[8.85138,45.77253],[8.84693,45.77351],[8.82816,45.77341],[8.82168,45.76894],[8.81265,45.76667],[8.81065,45.77051],[8.8159,45.77555],[8.81605,45.77611],[8.81533,45.77741],[8.8158,45.77886],[8.81875,45.78354],[8.82055,45.78502],[8.82018,45.78441],[8.82241,45.78371],[8.82645,45.7854],[8.83015,45.79042],[8.83436,45.79509]]]]}},{"type":"Feature","properties":{"nome":"Gemonio","istat":"012074"},"geometry":{"type":"MultiPolygon","coordinates":[[[[8.69729,45.89122],[8.69652,45.88162],[8.69602,45.88122],[8.68888,45.87867],[8.68376,45.8774],[8.6824,45.87747],[8.67932,45.87648],[8.66786,45.86781],[8.66381,45.86839],[8.66459,45.87161],[8.66896,45.87563],[8.66992,45.87874],[8.66963,45.8879],[8.66805,45.88886],[8.68093,45.89072],[8.69503,45.89181],[8.69729,45.89122]]]]}},{"type":"Feature","properties":{"nome":"Gerenzano","istat":"012075"},"geometry":{"type":"MultiPolygon","coordinates":[[[[8.99198,45.64768],[8.99375,45.64688],[9.00924,45.64452],[9.01818,45.64404],[9.02005,45.64482],[9.02052,45.6459],[9.02816,45.6432],[9.02054,45.64321],[9.01693,45.64158],[9.01674,45.63351],[9.01785,45.63299],[9.01774,45.62712],[9.01676,45.62659],[9.01273,45.62615],[8.99334,45.62822],[8.9924,45.62789],[8.98849,45.62413],[8.97981,45.61908],[8.97617,45.61738],[8.97499,45.61818],[8.97385,45.61799],[8.9653,45.63011],[8.95587,45.62507],[8.95455,45.62547],[8.95347,45.62933],[8.95651,45.63348],[8.96822,45.63486],[8.97059,45.63607],[8.97261,45.63787],[8.97517,45.6419],[8.9812,45.64546],[8.99198,45.64768]]]]}},{"type":"Feature","properties":{"nome":"Germignaga","istat":"012076"},"geometry":{"type":"MultiPolygon","coordinates":[[[[8.73352,45.99141],[8.73745,45.99146],[8.7415,45.9903],[8.74294,45.98813],[8.74279,45.98748],[8.74423,45.98099],[8.75037,45.96917],[8.75085,45.96833],[8.75345,45.96927],[8.75387,45.96794],[8.75039,45.9673],[8.74815,45.96867],[8.74779,45.9691],[8.74755,45.9718],[8.74549,45.97553],[8.74327,45.97741],[8.73204,45.98417],[8.71577,45.98657],[8.71349,45.98916],[8.7007,45.99994],[8.71238,46.00675],[8.73352,45.99141]]]]}},{"type":"Feature","properties":{"nome":"Golasecca","istat":"012077"},"geometry":{"type":"MultiPolygon","coordinates":[[[[8.65823,45.71314],[8.67112,45.71087],[8.67646,45.70612],[8.68459,45.70143],[8.68802,45.70008],[8.68797,45.69972],[8.68265,45.69458],[8.67571,45.69126],[8.6645,45.68152],[8.66033,45.68132],[8.64941,45.68363],[8.64792,45.68494],[8.64613,45.68577],[8.64144,45.68725],[8.6438,45.68944],[8.64614,45.69268],[8.65436,45.70788],[8.65467,45.71109],[8.65422,45.71205],[8.65823,45.71314]]]]}},{"type":"Feature","properties":{"nome":"Gorla Maggiore","istat":"012078"},"geometry":{"type":"MultiPolygon","coordinates":[[[[8.89475,45.6774],[8.90774,45.6748],[8.90919,45.67165],[8.9117,45.67079],[8.92088,45.67118],[8.92193,45.67006],[8.9227,45.66257],[8.90275,45.65665],[8.89162,45.65491],[8.88688,45.65945],[8.88414,45.67494],[8.89475,45.6774]]]]}},{"type":"Feature","properties":{"nome":"Gorla Minore","istat":"012079"},"geometry":{"type":"MultiPolygon","coordinates":[[[[8.92884,45.65353],[8.93499,45.65242],[8.94014,45.65033],[8.9399,45.6497],[8.9376,45.64889],[8.93836,45.64523],[8.93987,45.64265],[8.93648,45.64145],[8.93263,45.64148],[8.92395,45.64006],[8.92061,45.63924],[8.91333,45.63625],[8.909,45.63555],[8.89795,45.6353],[8.89557,45.63544],[8.89456,45.63608],[8.89279,45.6433],[8.89162,45.65491],[8.90275,45.65665],[8.9227,45.66257],[8.92884,45.65353]]]]}},{"type":"Feature","properties":{"nome":"Gornate Olona","istat":"012080"},"geometry":{"type":"MultiPolygon","coordinates":[[[[8.85905,45.74611],[8.86496,45.7458],[8.87547,45.74117],[8.87881,45.73636],[8.87915,45.72831],[8.8731,45.72083],[8.87179,45.72077],[8.8669,45.72243],[8.86513,45.7241],[8.86302,45.73061],[8.85316,45.73105],[8.849,45.73552],[8.84483,45.73488],[8.84422,45.73556],[8.84433,45.74714],[8.84562,45.74896],[8.84717,45.75028],[8.85905,45.74611]]]]}},{"type":"Feature","properties":{"nome":"Grantola","istat":"012081"},"geometry":{"type":"MultiPolygon","coordinates":[[[[8.79772,45.9545],[8.79333,45.9507],[8.78842,45.94879],[8.78333,45.94492],[8.78255,45.94276],[8.78306,45.93867],[8.78439,45.93635],[8.78629,45.93579],[8.78553,45.9357],[8.78298,45.93556],[8.78062,45.93699],[8.77953,45.93714],[8.77825,45.93671],[8.77229,45.94192],[8.76875,45.95167],[8.77015,45.95118],[8.77899,45.95088],[8.78593,45.9527],[8.78874,45.9542],[8.79772,45.9545]]]]}},{"type":"Feature","properties":{"nome":"Inarzo","istat":"012082"},"geometry":{"type":"MultiPolygon","coordinates":[[[[8.73413,45.79217],[8.74049,45.78987],[8.74339,45.78942],[8.74375,45.78616],[8.74149,45.77968],[8.74145,45.77877],[8.74204,45.77796],[8.73346,45.7804],[8.72881,45.7824],[8.72238,45.78355],[8.71211,45.78413],[8.71261,45.78515],[8.71376,45.79168],[8.73413,45.79217]]]]}},{"type":"Feature","properties":{"nome":"Induno Olona","istat":"012083"},"geometry":{"type":"MultiPolygon","coordinates":[[[[8.83524,45.87193],[8.83894,45.87188],[8.83991,45.8705],[8.84445,45.86777],[8.84527,45.86801],[8.84683,45.8673],[8.85182,45.86408],[8.85694,45.85566],[8.85731,45.85277],[8.85693,45.85031],[8.8576,45.84773],[8.8606,45.84347],[8.86447,45.83956],[8.86307,45.83855],[8.84132,45.83205],[8.82613,45.84058],[8.82213,45.84679],[8.82432,45.85684],[8.82146,45.85985],[8.81951,45.8606],[8.8155,45.86085],[8.81488,45.86201],[8.81286,45.86779],[8.81495,45.87134],[8.81556,45.87433],[8.81547,45.87579],[8.8142,45.87943],[8.81133,45.8826],[8.81715,45.8881],[8.82647,45.88241],[8.82857,45.87973],[8.82973,45.8774],[8.82975,45.87503],[8.83203,45.87272],[8.83524,45.87193]]]]}},{"type":"Feature","properties":{"nome":"Ispra","istat":"012084"},"geometry":{"type":"MultiPolygon","coordinates":[[[[8.62268,45.83354],[8.63094,45.83358],[8.63256,45.83292],[8.63519,45.83055],[8.63576,45.8283],[8.63506,45.82703],[8.63521,45.82617],[8.64026,45.81552],[8.64027,45.81382],[8.64173,45.80846],[8.63717,45.80554],[8.63609,45.80536],[8.63491,45.80571],[8.63014,45.80408],[8.62603,45.79786],[8.62606,45.79371],[8.60954,45.79362],[8.61071,45.79041],[8.60383,45.78867],[8.6016,45.79281],[8.593,45.79761],[8.59332,45.79939],[8.58008,45.81287],[8.58165,45.81366],[8.58794,45.81893],[8.59203,45.82444],[8.5938,45.82825],[8.5952,45.83361],[8.62268,45.83354]]]]}},{"type":"Feature","properties":{"nome":"Jerago con Orago","istat":"012085"},"geometry":{"type":"MultiPolygon","coordinates":[[[[8.79313,45.71664],[8.79946,45.71587],[8.8001,45.71393],[8.80099,45.7127],[8.80956,45.70826],[8.80788,45.69961],[8.79514,45.69837],[8.79027,45.70019],[8.78455,45.70165],[8.78213,45.7001],[8.78102,45.69807],[8.77785,45.70505],[8.77788,45.70929],[8.77942,45.71234],[8.78632,45.71804],[8.79313,45.71664]]]]}},{"type":"Feature","properties":{"nome":"Lavena Ponte Tresa","istat":"012086"},"geometry":{"type":"MultiPolygon","coordinates":[[[[8.87318,45.95884],[8.88286,45.95656],[8.88302,45.9531],[8.88108,45.95168],[8.87741,45.95065],[8.87284,45.94795],[8.8706,45.94527],[8.86037,45.94325],[8.85712,45.94611],[8.85252,45.95374],[8.84657,45.9661],[8.84415,45.97302],[8.84497,45.974],[8.84772,45.97506],[8.84917,45.97316],[8.86823,45.96039],[8.87318,45.95884]]]]}},{"type":"Feature","properties":{"nome":"Laveno-Mombello","istat":"012087"},"geometry":{"type":"MultiPolygon","coordinates":[[[[8.63712,45.92551],[8.64578,45.92436],[8.64721,45.92116],[8.64738,45.91871],[8.64605,45.91238],[8.64321,45.90338],[8.6426,45.89851],[8.64289,45.89103],[8.64446,45.88726],[8.63917,45.88485],[8.6333,45.88853],[8.63202,45.88857],[8.62837,45.88673],[8.62532,45.88232],[8.62505,45.88072],[8.61446,45.884],[8.60859,45.88537],[8.606,45.88644],[8.60649,45.88765],[8.60493,45.88945],[8.60156,45.88907],[8.59812,45.8876],[8.57014,45.89125],[8.56945,45.89413],[8.57064,45.90003],[8.57397,45.90379],[8.58789,45.91693],[8.59384,45.92183],[8.61688,45.93838],[8.63712,45.92551]]]]}},{"type":"Feature","properties":{"nome":"Leggiuno","istat":"012088"},"geometry":{"type":"MultiPolygon","coordinates":[[[[8.59812,45.8876],[8.60156,45.88907],[8.60493,45.88945],[8.60649,45.88765],[8.606,45.88644],[8.60859,45.88537],[8.61446,45.884],[8.62505,45.88072],[8.62467,45.87991],[8.62496,45.87574],[8.62754,45.87118],[8.63378,45.86602],[8.63798,45.86709],[8.6359,45.86282],[8.63324,45.86306],[8.63041,45.86197],[8.6269,45.8588],[8.61551,45.85372],[8.59231,45.85245],[8.58693,45.86037],[8.57495,45.88227],[8.57167,45.887],[8.57014,45.89125],[8.59812,45.8876]]]]}},{"type":"Feature","properties":{"nome":"Lonate Ceppino","istat":"012089"},"geometry":{"type":"MultiPolygon","coordinates":[[[[8.88269,45.72786],[8.88303,45.72741],[8.88104,45.72435],[8.88562,45.72317],[8.88719,45.71714],[8.88772,45.71172],[8.88953,45.70261],[8.89427,45.69515],[8.89368,45.69276],[8.89239,45.69137],[8.88827,45.68991],[8.88193,45.69102],[8.877,45.69372],[8.87453,45.69965],[8.86858,45.70393],[8.86714,45.70698],[8.86786,45.70884],[8.8701,45.7113],[8.872,45.71274],[8.87245,45.71366],[8.8731,45.72083],[8.87915,45.72831],[8.88269,45.72786]]]]}},{"type":"Feature","properties":{"nome":"Lonate Pozzolo","istat":"012090"},"geometry":{"type":"MultiPolygon","coordinates":[[[[8.70921,45.61748],[8.71775,45.61733],[8.71903,45.61488],[8.72375,45.61337],[8.73882,45.61051],[8.7578,45.60776],[8.7699,45.60611],[8.774,45.60631],[8.78615,45.60242],[8.78625,45.59923],[8.78228,45.58657],[8.77093,45.5879],[8.76946,45.58759],[8.76709,45.57808],[8.76568,45.5766],[8.75418,45.57363],[8.74774,45.57226],[8.74266,45.57166],[8.75135,45.56549],[8.7454,45.56336],[8.74039,45.56254],[8.73917,45.56019],[8.73808,45.55993],[8.73021,45.56095],[8.72585,45.56432],[8.72381,45.5669],[8.7189,45.56813],[8.71887,45.56726],[8.71794,45.56558],[8.71434,45.56224],[8.70688,45.55831],[8.70553,45.56915],[8.70486,45.56994],[8.70058,45.57178],[8.69657,45.57438],[8.69442,45.576],[8.69334,45.57778],[8.69383,45.57979],[8.69562,45.58203],[8.69899,45.58473],[8.70359,45.58714],[8.70444,45.58831],[8.70476,45.59425],[8.70315,45.60006],[8.69983,45.60449],[8.69876,45.60328],[8.69927,45.60171],[8.69533,45.60247],[8.69186,45.6041],[8.68873,45.6078],[8.68878,45.60823],[8.69386,45.60965],[8.6966,45.60821],[8.70259,45.61346],[8.70799,45.61749],[8.70921,45.61748]]]]}},{"type":"Feature","properties":{"nome":"Lozza","istat":"012091"},"geometry":{"type":"MultiPolygon","coordinates":[[[[8.86661,45.78402],[8.86782,45.78312],[8.86949,45.78076],[8.87189,45.7712],[8.8717,45.77014],[8.87066,45.7689],[8.86797,45.76673],[8.85924,45.7717],[8.85602,45.77135],[8.85307,45.77255],[8.85113,45.77936],[8.85767,45.77855],[8.85891,45.77882],[8.86543,45.7824],[8.86647,45.78353],[8.86604,45.78397],[8.86661,45.78402]]]]}},{"type":"Feature","properties":{"nome":"Luino","istat":"012092"},"geometry":{"type":"MultiPolygon","coordinates":[[[[8.75809,46.03132],[8.76732,46.03002],[8.76572,46.02968],[8.76511,46.02843],[8.76635,46.02337],[8.77201,46.01417],[8.77937,46.00854],[8.78016,46.00677],[8.77985,46.00364],[8.78038,46.00181],[8.78315,46.00071],[8.78999,45.99981],[8.7859,45.98902],[8.77834,45.98484],[8.77281,45.98387],[8.76611,45.98332],[8.76354,45.98367],[8.76212,45.98321],[8.75786,45.97928],[8.75345,45.96927],[8.75085,45.96833],[8.74423,45.98099],[8.74279,45.98748],[8.74294,45.98813],[8.7415,45.9903],[8.73745,45.99146],[8.73352,45.99141],[8.71238,46.00675],[8.7208,46.01229],[8.72643,46.01797],[8.72888,46.02345],[8.72905,46.02684],[8.748,46.02774],[8.7493,46.02823],[8.75034,46.02929],[8.75809,46.03132]]]]}},{"type":"Feature","properties":{"nome":"Luvinate","istat":"012093"},"geometry":{"type":"MultiPolygon","coordinates":[[[[8.77759,45.86829],[8.77681,45.86001],[8.7746,45.85184],[8.7745,45.84884],[8.7753,45.84561],[8.77341,45.84282],[8.77565,45.83584],[8.77759,45.83169],[8.77749,45.83062],[8.77676,45.8296],[8.77487,45.82896],[8.76123,45.83007],[8.7578,45.83089],[8.75722,45.83168],[8.75734,45.83212],[8.76093,45.83853],[8.76436,45.84332],[8.76528,45.84665],[8.76565,45.85014],[8.76484,45.85281],[8.76483,45.85412],[8.76632,45.86862],[8.77314,45.86961],[8.77759,45.86829]]]]}},{"type":"Feature","properties":{"nome":"Maccagno con Pino e Veddasca","istat":"012142"},"geometry":{"type":"MultiPolygon","coordinates":[[[[8.76877,46.10002],[8.78342,46.09394],[8.79976,46.09458],[8.80615,46.10091],[8.80782,46.10043],[8.81529,46.09726],[8.82805,46.08806],[8.83271,46.08345],[8.83714,46.08139],[8.84176,46.08028],[8.84714,46.07585],[8.84351,46.07455],[8.826,46.07465],[8.82342,46.07535],[8.82171,46.07652],[8.82047,46.07806],[8.81015,46.07798],[8.8098,46.07777],[8.81003,46.07746],[8.81476,46.07422],[8.81455,46.0722],[8.81307,46.06999],[8.80598,46.0649],[8.80068,46.0624],[8.78975,46.05899],[8.77626,46.05207],[8.76614,46.04948],[8.76471,46.04818],[8.76768,46.04501],[8.75712,46.04177],[8.75114,46.0393],[8.74979,46.03665],[8.75034,46.02929],[8.7493,46.02823],[8.748,46.02774],[8.72905,46.02684],[8.72876,46.02923],[8.7275,46.03238],[8.72629,46.03421],[8.72235,46.03805],[8.72064,46.04105],[8.71763,46.05139],[8.71556,46.06227],[8.71396,46.06603],[8.73627,46.07065],[8.73803,46.07242],[8.73851,46.07426],[8.75368,46.08091],[8.76002,46.08164],[8.76068,46.08501],[8.75445,46.09822],[8.75388,46.09901],[8.75261,46.09961],[8.73573,46.09675],[8.7184,46.10195],[8.72464,46.11017],[8.74269,46.12215],[8.75678,46.10376],[8.76017,46.1017],[8.76296,46.1009],[8.76877,46.10002]]]]}},{"type":"Feature","properties":{"nome":"Malnate","istat":"012096"},"geometry":{"type":"MultiPolygon","coordinates":[[[[8.87499,45.81252],[8.88462,45.81097],[8.88491,45.81056],[8.88455,45.81039],[8.8846,45.80946],[8.88757,45.80928],[8.89312,45.81112],[8.89696,45.81292],[8.90034,45.80819],[8.90142,45.80015],[8.9028,45.79692],[8.90498,45.79474],[8.90865,45.79328],[8.9004,45.78477],[8.89152,45.78691],[8.87652,45.78396],[8.87655,45.78315],[8.87157,45.78216],[8.86782,45.78312],[8.86661,45.78402],[8.85672,45.78778],[8.8561,45.78906],[8.85784,45.79127],[8.86309,45.79526],[8.86718,45.80044],[8.86878,45.81005],[8.86776,45.81438],[8.87499,45.81252]]]]}},{"type":"Feature","properties":{"nome":"Marchirolo","istat":"012097"},"geometry":{"type":"MultiPolygon","coordinates":[[[[8.83096,45.95411],[8.83571,45.9536],[8.84218,45.95131],[8.84567,45.94919],[8.85068,45.9437],[8.85467,45.94033],[8.85199,45.93899],[8.8496,45.93612],[8.84947,45.93039],[8.84972,45.92975],[8.85264,45.92818],[8.85126,45.92142],[8.84646,45.92293],[8.83461,45.92851],[8.8256,45.93957],[8.82327,45.95074],[8.82197,45.95332],[8.81437,45.96326],[8.81684,45.96224],[8.82662,45.95616],[8.83096,45.95411]]]]}},{"type":"Feature","properties":{"nome":"Marnate","istat":"012098"},"geometry":{"type":"MultiPolygon","coordinates":[[[[8.9332,45.64143],[8.93648,45.64145],[8.93329,45.6382],[8.92899,45.63541],[8.93046,45.63032],[8.93243,45.62646],[8.92713,45.62589],[8.92428,45.62382],[8.91534,45.62152],[8.90355,45.62164],[8.89873,45.62233],[8.89751,45.62212],[8.89436,45.62043],[8.89657,45.62474],[8.89631,45.62678],[8.89534,45.62835],[8.89271,45.63113],[8.89201,45.63254],[8.89456,45.63608],[8.89557,45.63544],[8.89795,45.6353],[8.909,45.63555],[8.91333,45.63625],[8.92061,45.63924],[8.92395,45.64006],[8.9332,45.64143]]]]}},{"type":"Feature","properties":{"nome":"Marzio","istat":"012099"},"geometry":{"type":"MultiPolygon","coordinates":[[[[8.87181,45.94042],[8.86642,45.93727],[8.86231,45.93353],[8.8621,45.92958],[8.85264,45.92818],[8.84972,45.92975],[8.8496,45.93612],[8.85098,45.93813],[8.85199,45.93899],[8.86037,45.94325],[8.8706,45.94527],[8.87181,45.94042]]]]}},{"type":"Feature","properties":{"nome":"Masciago Primo","istat":"012100"},"geometry":{"type":"MultiPolygon","coordinates":[[[[8.7802,45.9269],[8.79689,45.92556],[8.80185,45.92195],[8.79441,45.92155],[8.78923,45.91801],[8.78783,45.91623],[8.78781,45.91528],[8.79027,45.91139],[8.79049,45.90913],[8.7903,45.90866],[8.78808,45.90866],[8.78665,45.91052],[8.77885,45.91438],[8.77761,45.91567],[8.77631,45.9181],[8.7764,45.91988],[8.77999,45.92473],[8.77812,45.92673],[8.7802,45.9269]]]]}},{"type":"Feature","properties":{"nome":"Mercallo","istat":"012101"},"geometry":{"type":"MultiPolygon","coordinates":[[[[8.66985,45.76345],[8.67544,45.76176],[8.68419,45.76068],[8.69137,45.76162],[8.6808,45.75051],[8.67742,45.74581],[8.67745,45.74362],[8.67834,45.73875],[8.67686,45.73732],[8.67423,45.73624],[8.6672,45.73646],[8.66281,45.7378],[8.65317,45.74659],[8.65292,45.74738],[8.65856,45.76129],[8.66214,45.76758],[8.66985,45.76345]]]]}},{"type":"Feature","properties":{"nome":"Mesenzana","istat":"012102"},"geometry":{"type":"MultiPolygon","coordinates":[[[[8.76337,45.95853],[8.76875,45.95167],[8.77229,45.94192],[8.7657,45.94184],[8.75514,45.94027],[8.75174,45.93819],[8.74949,45.93362],[8.74986,45.93158],[8.7484,45.93019],[8.74682,45.92956],[8.74277,45.92854],[8.74068,45.93006],[8.73147,45.92975],[8.7319,45.93223],[8.73501,45.94035],[8.73988,45.94272],[8.74585,45.9448],[8.74701,45.94512],[8.74952,45.94453],[8.75041,45.94471],[8.75109,45.94808],[8.75077,45.95185],[8.74774,45.95732],[8.75707,45.96174],[8.76337,45.95853]]]]}},{"type":"Feature","properties":{"nome":"Montegrino Valtravaglia","istat":"012103"},"geometry":{"type":"MultiPolygon","coordinates":[[[[8.77826,45.98262],[8.77808,45.98194],[8.77855,45.98132],[8.78192,45.9798],[8.78786,45.9782],[8.79214,45.97818],[8.7988,45.97592],[8.80199,45.97084],[8.80279,45.96757],[8.806,45.96551],[8.8063,45.96387],[8.8055,45.96056],[8.79485,45.95758],[8.79531,45.95615],[8.79751,45.95474],[8.78874,45.9542],[8.78593,45.9527],[8.77899,45.95088],[8.77015,45.95118],[8.76875,45.95167],[8.76337,45.95853],[8.75707,45.96174],[8.75345,45.96927],[8.75786,45.97928],[8.76212,45.98321],[8.76354,45.98367],[8.76611,45.98332],[8.77281,45.98387],[8.77834,45.98484],[8.77826,45.98262]]]]}},{"type":"Feature","properties":{"nome":"Monvalle","istat":"012104"},"geometry":{"type":"MultiPolygon","coordinates":[[[[8.6359,45.86282],[8.63704,45.8607],[8.64021,45.8582],[8.6417,45.85764],[8.64315,45.85474],[8.64231,45.85268],[8.63755,45.8468],[8.62273,45.84463],[8.59462,45.8448],[8.59231,45.85245],[8.61551,45.85372],[8.6269,45.8588],[8.63041,45.86197],[8.63324,45.86306],[8.6359,45.86282]]]]}},{"type":"Feature","properties":{"nome":"Morazzone","istat":"012105"},"geometry":{"type":"MultiPolygon","coordinates":[[[[8.85138,45.77253],[8.85307,45.77255],[8.85602,45.77135],[8.85239,45.76719],[8.84831,45.7606],[8.84938,45.75387],[8.84889,45.75215],[8.84717,45.75028],[8.84585,45.7525],[8.84598,45.75343],[8.84477,45.75374],[8.83253,45.75345],[8.82438,45.75144],[8.82219,45.75198],[8.81732,45.75637],[8.81236,45.76484],[8.81265,45.76667],[8.82168,45.76894],[8.82816,45.77341],[8.84693,45.77351],[8.85138,45.77253]]]]}},{"type":"Feature","properties":{"nome":"Mornago","istat":"012106"},"geometry":{"type":"MultiPolygon","coordinates":[[[[8.75267,45.76102],[8.75847,45.76019],[8.76631,45.75542],[8.77196,45.7538],[8.77436,45.7541],[8.77482,45.75541],[8.77576,45.75449],[8.77934,45.74665],[8.77646,45.74609],[8.77442,45.74501],[8.77168,45.74236],[8.75997,45.72617],[8.75675,45.72495],[8.75556,45.71785],[8.74688,45.71088],[8.74457,45.71078],[8.74094,45.71145],[8.72695,45.71965],[8.72447,45.72205],[8.72935,45.72625],[8.73647,45.73627],[8.73533,45.7375],[8.73548,45.73944],[8.73703,45.74406],[8.74016,45.74932],[8.74722,45.75744],[8.75198,45.76139],[8.75267,45.76102]]]]}},{"type":"Feature","properties":{"nome":"Oggiona con Santo Stefano","istat":"012107"},"geometry":{"type":"MultiPolygon","coordinates":[[[[8.8238,45.70898],[8.82901,45.7059],[8.82946,45.70519],[8.82879,45.6992],[8.82584,45.69427],[8.82325,45.69132],[8.81924,45.68867],[8.81249,45.68859],[8.81292,45.69331],[8.81183,45.69621],[8.81059,45.69822],[8.80788,45.69961],[8.80956,45.70826],[8.8238,45.70898]]]]}},{"type":"Feature","properties":{"nome":"Olgiate Olona","istat":"012108"},"geometry":{"type":"MultiPolygon","coordinates":[[[[8.88628,45.64196],[8.89279,45.6433],[8.89456,45.63608],[8.89201,45.63254],[8.89271,45.63113],[8.89534,45.62835],[8.89631,45.62678],[8.89657,45.62509],[8.89436,45.62043],[8.89621,45.61717],[8.89557,45.61596],[8.88934,45.61447],[8.88423,45.61518],[8.86848,45.61983],[8.85823,45.62594],[8.85765,45.62788],[8.85864,45.6338],[8.85893,45.63886],[8.85257,45.63794],[8.85161,45.64216],[8.85213,45.6431],[8.857,45.64115],[8.86096,45.64029],[8.87896,45.64184],[8.88628,45.64196]]]]}},{"type":"Feature","properties":{"nome":"Origgio","istat":"012109"},"geometry":{"type":"MultiPolygon","coordinates":[[[[9.02915,45.61042],[9.0306,45.60845],[9.02761,45.60581],[9.02674,45.60442],[9.0268,45.60288],[9.02763,45.60048],[9.02851,45.59995],[9.03079,45.59685],[9.02567,45.58847],[9.02448,45.58469],[9.02145,45.58292],[9.01114,45.58018],[9.00955,45.58176],[9.00322,45.57799],[9.00209,45.57417],[8.98353,45.59106],[9.0014,45.60008],[9.00207,45.60145],[9.00378,45.60332],[9.01559,45.60874],[9.01947,45.60995],[9.02915,45.61042]]]]}},{"type":"Feature","properties":{"nome":"Orino","istat":"012110"},"geometry":{"type":"MultiPolygon","coordinates":[[[[8.72659,45.89001],[8.73223,45.88919],[8.73344,45.88863],[8.73434,45.88808],[8.7358,45.88558],[8.73536,45.87384],[8.72971,45.87187],[8.72065,45.87117],[8.70308,45.8754],[8.70181,45.87635],[8.70386,45.88042],[8.72545,45.88941],[8.7214,45.88943],[8.72659,45.89001]]]]}},{"type":"Feature","properties":{"nome":"Porto Ceresio","istat":"012113"},"geometry":{"type":"MultiPolygon","coordinates":[[[[8.90438,45.92155],[8.90689,45.91786],[8.91205,45.91735],[8.92461,45.90585],[8.92514,45.90494],[8.92548,45.90274],[8.9247,45.90005],[8.9237,45.89838],[8.92226,45.90079],[8.92069,45.90109],[8.91488,45.89817],[8.90161,45.89659],[8.89855,45.89568],[8.88849,45.89417],[8.89036,45.89609],[8.89084,45.90102],[8.89166,45.90318],[8.89641,45.91112],[8.89793,45.91546],[8.89777,45.91759],[8.89581,45.91975],[8.89368,45.9209],[8.89247,45.92111],[8.89826,45.92533],[8.90438,45.92155]]]]}},{"type":"Feature","properties":{"nome":"Porto Valtravaglia","istat":"012114"},"geometry":{"type":"MultiPolygon","coordinates":[[[[8.71553,45.96547],[8.72277,45.96628],[8.72564,45.96513],[8.72854,45.96319],[8.72656,45.95946],[8.72497,45.95804],[8.72705,45.95528],[8.72894,45.95686],[8.73,45.95175],[8.72534,45.94857],[8.71994,45.94791],[8.71973,45.94588],[8.72038,45.94319],[8.72482,45.93618],[8.72666,45.93557],[8.72739,45.93413],[8.72729,45.93277],[8.72559,45.92957],[8.72254,45.92876],[8.71503,45.9306],[8.71292,45.93178],[8.6919,45.9493],[8.68948,45.95357],[8.68692,45.95555],[8.67291,45.9568],[8.67113,45.95648],[8.66963,45.95511],[8.6541,45.96609],[8.6823,45.98689],[8.70118,45.97329],[8.70416,45.97153],[8.70223,45.97088],[8.70205,45.97018],[8.71553,45.96547]]]]}},{"type":"Feature","properties":{"nome":"Rancio Valcuvia","istat":"012115"},"geometry":{"type":"MultiPolygon","coordinates":[[[[8.7764,45.92808],[8.77999,45.92473],[8.7764,45.91988],[8.77631,45.9181],[8.77761,45.91567],[8.77958,45.91392],[8.78665,45.91052],[8.79298,45.90089],[8.79111,45.90117],[8.78672,45.90055],[8.77284,45.89521],[8.77734,45.9024],[8.77882,45.90373],[8.77828,45.90519],[8.77562,45.90807],[8.77473,45.90847],[8.77014,45.90762],[8.76081,45.91021],[8.75606,45.9157],[8.75242,45.92164],[8.75227,45.92589],[8.75735,45.92469],[8.76446,45.92136],[8.76452,45.92035],[8.76542,45.91987],[8.76637,45.92008],[8.77082,45.92372],[8.77501,45.92908],[8.7764,45.92808]]]]}},{"type":"Feature","properties":{"nome":"Ranco","istat":"012116"},"geometry":{"type":"MultiPolygon","coordinates":[[[[8.593,45.79761],[8.6016,45.79281],[8.60063,45.79133],[8.59534,45.78627],[8.58337,45.78934],[8.57585,45.79062],[8.57447,45.79057],[8.56489,45.78733],[8.55227,45.7881],[8.55479,45.79814],[8.55556,45.80004],[8.55828,45.80356],[8.56351,45.80724],[8.58008,45.81287],[8.59332,45.79939],[8.593,45.79761]]]]}},{"type":"Feature","properties":{"nome":"Saltrio","istat":"012117"},"geometry":{"type":"MultiPolygon","coordinates":[[[[8.93264,45.86691],[8.9232,45.8657],[8.91829,45.86337],[8.91836,45.86187],[8.91655,45.86201],[8.91608,45.8784],[8.91695,45.88303],[8.92108,45.88908],[8.92427,45.89206],[8.92809,45.89128],[8.93216,45.88467],[8.93376,45.87982],[8.93511,45.87177],[8.93264,45.86691]]]]}},{"type":"Feature","properties":{"nome":"Samarate","istat":"012118"},"geometry":{"type":"MultiPolygon","coordinates":[[[[8.79774,45.63998],[8.80317,45.63684],[8.80819,45.63621],[8.8207,45.63055],[8.8169,45.6255],[8.81434,45.62495],[8.80571,45.6119],[8.80494,45.60689],[8.80639,45.60167],[8.78615,45.60242],[8.774,45.60631],[8.77826,45.60843],[8.778,45.60988],[8.76463,45.62289],[8.7576,45.62419],[8.75717,45.62269],[8.75614,45.62192],[8.75371,45.62144],[8.73724,45.6249],[8.72781,45.63175],[8.72647,45.63414],[8.73029,45.63439],[8.7306,45.63371],[8.74338,45.63497],[8.76469,45.63369],[8.77581,45.63451],[8.78444,45.6366],[8.78673,45.63836],[8.78725,45.63964],[8.79774,45.63998]]]]}},{"type":"Feature","properties":{"nome":"Sangiano","istat":"012141"},"geometry":{"type":"MultiPolygon","coordinates":[[[[8.63641,45.88672],[8.63917,45.88485],[8.64022,45.88345],[8.6414,45.88135],[8.64154,45.87961],[8.63853,45.87239],[8.63798,45.86709],[8.63434,45.86592],[8.63315,45.86642],[8.62754,45.87118],[8.62496,45.87574],[8.62467,45.87991],[8.62532,45.88232],[8.62837,45.88673],[8.63282,45.88874],[8.63641,45.88672]]]]}},{"type":"Feature","properties":{"nome":"Saronno","istat":"012119"},"geometry":{"type":"MultiPolygon","coordinates":[[[[9.05574,45.6465],[9.05477,45.64511],[9.05839,45.64112],[9.06255,45.64112],[9.06245,45.63824],[9.06171,45.63685],[9.05727,45.6366],[9.05151,45.63333],[9.05121,45.62869],[9.05227,45.62396],[9.05292,45.62319],[9.05267,45.61926],[9.05301,45.61443],[9.05452,45.61292],[9.05768,45.61284],[9.05809,45.61197],[9.05811,45.60952],[9.05758,45.60882],[9.05057,45.60903],[9.04296,45.61049],[9.03807,45.61091],[9.0306,45.60845],[9.02915,45.61042],[9.01947,45.60995],[9.01735,45.62042],[9.01273,45.62615],[9.01676,45.62659],[9.01774,45.62712],[9.01785,45.63299],[9.01674,45.63351],[9.01693,45.64158],[9.02054,45.64321],[9.02816,45.6432],[9.03554,45.64254],[9.04883,45.64581],[9.05404,45.64673],[9.05574,45.6465]]]]}},{"type":"Feature","properties":{"nome":"Sesto Calende","istat":"012120"},"geometry":{"type":"MultiPolygon","coordinates":[[[[8.65264,45.77695],[8.66275,45.77539],[8.66214,45.76758],[8.65856,45.76129],[8.65292,45.74738],[8.65317,45.74659],[8.66281,45.7378],[8.6672,45.73646],[8.67255,45.7362],[8.67603,45.73442],[8.67832,45.71796],[8.6733,45.71131],[8.67242,45.71076],[8.65823,45.71314],[8.65422,45.71205],[8.65343,45.71397],[8.64878,45.71956],[8.64596,45.72176],[8.64287,45.72316],[8.64007,45.7235],[8.63473,45.72286],[8.62304,45.72402],[8.61968,45.72493],[8.61519,45.7255],[8.607,45.72585],[8.59375,45.73041],[8.59103,45.73346],[8.58753,45.74121],[8.58243,45.74917],[8.58575,45.75167],[8.59268,45.75538],[8.59795,45.75606],[8.6002,45.75586],[8.612,45.74901],[8.62726,45.74837],[8.62866,45.74886],[8.63606,45.75312],[8.64147,45.76185],[8.64168,45.76312],[8.64022,45.76816],[8.64097,45.77131],[8.64463,45.77608],[8.64564,45.77724],[8.65264,45.77695]]]]}},{"type":"Feature","properties":{"nome":"Solbiate Arno","istat":"012121"},"geometry":{"type":"MultiPolygon","coordinates":[[[[8.82402,45.72651],[8.82533,45.72448],[8.82698,45.71541],[8.82654,45.71307],[8.8238,45.70898],[8.80956,45.70826],[8.80442,45.71096],[8.80407,45.71384],[8.80572,45.71781],[8.81042,45.72566],[8.8131,45.72926],[8.81423,45.72972],[8.82008,45.72928],[8.82402,45.72651]]]]}},{"type":"Feature","properties":{"nome":"Solbiate Olona","istat":"012122"},"geometry":{"type":"MultiPolygon","coordinates":[[[[8.88753,45.65907],[8.89162,45.65491],[8.89279,45.6433],[8.88628,45.64196],[8.87896,45.64184],[8.86096,45.64029],[8.857,45.64115],[8.85213,45.6431],[8.85421,45.64603],[8.85592,45.64934],[8.85701,45.65287],[8.85788,45.65439],[8.87934,45.6587],[8.88688,45.65945],[8.88753,45.65907]]]]}},{"type":"Feature","properties":{"nome":"Somma Lombardo","istat":"012123"},"geometry":{"type":"MultiPolygon","coordinates":[[[[8.71239,45.70579],[8.71461,45.70309],[8.72124,45.69692],[8.72356,45.6918],[8.72357,45.68981],[8.72729,45.67699],[8.72904,45.67555],[8.7297,45.67341],[8.7296,45.66999],[8.7282,45.66751],[8.72507,45.66497],[8.72612,45.65607],[8.72895,45.6467],[8.72346,45.64477],[8.72508,45.64151],[8.73029,45.63439],[8.71848,45.6332],[8.7074,45.63073],[8.70667,45.62982],[8.70299,45.62992],[8.70197,45.63143],[8.70141,45.63358],[8.7047,45.6341],[8.70433,45.63714],[8.69994,45.63683],[8.69202,45.63462],[8.69132,45.63413],[8.69102,45.63328],[8.68813,45.63188],[8.6852,45.6344],[8.68818,45.63699],[8.68861,45.63821],[8.68802,45.64167],[8.686,45.6451],[8.68203,45.65001],[8.6724,45.65797],[8.66983,45.66142],[8.6702,45.66423],[8.67112,45.66547],[8.67237,45.66632],[8.68042,45.66802],[8.68198,45.66945],[8.6827,45.67082],[8.68101,45.67664],[8.67879,45.67742],[8.6751,45.67764],[8.66812,45.67512],[8.66368,45.67455],[8.65262,45.67457],[8.64342,45.67548],[8.64179,45.67602],[8.6408,45.67681],[8.64043,45.68472],[8.64144,45.68725],[8.64613,45.68577],[8.64792,45.68494],[8.64941,45.68363],[8.66033,45.68132],[8.6645,45.68152],[8.67571,45.69126],[8.68265,45.69458],[8.68802,45.70008],[8.68908,45.6997],[8.69314,45.7001],[8.69496,45.70179],[8.69545,45.70322],[8.70947,45.70769],[8.71239,45.70579]]]]}},{"type":"Feature","properties":{"nome":"Sumirago","istat":"012124"},"geometry":{"type":"MultiPolygon","coordinates":[[[[8.7925,45.76045],[8.79765,45.75964],[8.80042,45.7559],[8.80353,45.74613],[8.80564,45.74156],[8.80478,45.73548],[8.79949,45.73316],[8.78987,45.73161],[8.78569,45.72628],[8.78632,45.71804],[8.77942,45.71234],[8.77466,45.71186],[8.76826,45.71442],[8.76317,45.71485],[8.75922,45.71468],[8.75556,45.71785],[8.75675,45.72495],[8.75997,45.72617],[8.77168,45.74236],[8.77442,45.74501],[8.77646,45.74609],[8.77934,45.74665],[8.77576,45.75449],[8.77482,45.75541],[8.77756,45.75754],[8.7859,45.76655],[8.7925,45.76045]]]]}},{"type":"Feature","properties":{"nome":"Taino","istat":"012125"},"geometry":{"type":"MultiPolygon","coordinates":[[[[8.61158,45.78106],[8.61229,45.7789],[8.61759,45.77608],[8.62865,45.77107],[8.63821,45.76504],[8.64088,45.76524],[8.64168,45.76312],[8.64147,45.76185],[8.63606,45.75312],[8.62726,45.74837],[8.612,45.74901],[8.60069,45.75529],[8.60125,45.75552],[8.60158,45.75636],[8.60284,45.76118],[8.60042,45.76279],[8.59915,45.76439],[8.60348,45.77638],[8.60805,45.78032],[8.61158,45.78106]]]]}},{"type":"Feature","properties":{"nome":"Ternate","istat":"012126"},"geometry":{"type":"MultiPolygon","coordinates":[[[[8.7016,45.79519],[8.7127,45.79476],[8.71376,45.79168],[8.71261,45.78515],[8.70308,45.7819],[8.69982,45.78001],[8.69865,45.77795],[8.69925,45.7775],[8.69909,45.77604],[8.68583,45.77312],[8.68316,45.77374],[8.68,45.77697],[8.6805,45.78515],[8.68106,45.78626],[8.68076,45.78926],[8.69045,45.79129],[8.69131,45.79184],[8.69153,45.79252],[8.69093,45.79393],[8.69067,45.79665],[8.69379,45.79775],[8.70064,45.7961],[8.7016,45.79519]]]]}},{"type":"Feature","properties":{"nome":"Tradate","istat":"012127"},"geometry":{"type":"MultiPolygon","coordinates":[[[[8.92852,45.74736],[8.92998,45.74746],[8.94267,45.74498],[8.94118,45.74431],[8.93928,45.73949],[8.93945,45.7372],[8.94286,45.73528],[8.94771,45.73307],[8.94849,45.73307],[8.95088,45.73111],[8.95117,45.72649],[8.95038,45.71987],[8.95149,45.7153],[8.9506,45.71147],[8.94809,45.7105],[8.94617,45.70925],[8.94791,45.70663],[8.94493,45.70671],[8.94418,45.70974],[8.94185,45.71268],[8.94117,45.71275],[8.93142,45.70436],[8.93192,45.69688],[8.92691,45.69428],[8.90476,45.68536],[8.89945,45.68555],[8.89467,45.6846],[8.8915,45.69112],[8.89239,45.69137],[8.89368,45.69276],[8.89427,45.69515],[8.88953,45.70261],[8.88772,45.71172],[8.88719,45.71714],[8.88562,45.72317],[8.88104,45.72435],[8.88303,45.72741],[8.88376,45.7261],[8.88428,45.72591],[8.89491,45.72402],[8.89705,45.72417],[8.90564,45.72719],[8.92021,45.73682],[8.92186,45.73986],[8.92269,45.7426],[8.92284,45.74547],[8.92607,45.74816],[8.92852,45.74736]]]]}},{"type":"Feature","properties":{"nome":"Travedona-Monate","istat":"012128"},"geometry":{"type":"MultiPolygon","coordinates":[[[[8.66063,45.8204],[8.66415,45.82056],[8.66636,45.81993],[8.66786,45.8183],[8.66823,45.81653],[8.67212,45.81396],[8.67688,45.81392],[8.68268,45.81235],[8.68612,45.81205],[8.69116,45.81278],[8.69244,45.81426],[8.69652,45.80937],[8.69856,45.8049],[8.70073,45.79959],[8.70103,45.79802],[8.70064,45.7961],[8.69379,45.79775],[8.69067,45.79665],[8.69093,45.79393],[8.69153,45.79252],[8.69131,45.79184],[8.69045,45.79129],[8.67394,45.78826],[8.65342,45.79933],[8.65012,45.80335],[8.64655,45.80956],[8.64476,45.81399],[8.64027,45.81382],[8.64026,45.81552],[8.64483,45.81615],[8.65335,45.81836],[8.65719,45.81952],[8.65864,45.82081],[8.66063,45.8204]]]]}},{"type":"Feature","properties":{"nome":"Tronzano Lago Maggiore","istat":"012129"},"geometry":{"type":"MultiPolygon","coordinates":[[[[8.73573,46.09675],[8.75261,46.09961],[8.75388,46.09901],[8.76068,46.08501],[8.76002,46.08164],[8.75368,46.08091],[8.73851,46.07426],[8.73803,46.07242],[8.73627,46.07065],[8.71396,46.06603],[8.71064,46.07421],[8.70548,46.08193],[8.70556,46.08513],[8.70628,46.08772],[8.70785,46.09081],[8.7184,46.10195],[8.73573,46.09675]]]]}},{"type":"Feature","properties":{"nome":"Uboldo","istat":"012130"},"geometry":{"type":"MultiPolygon","coordinates":[[[[8.99696,45.62769],[9.01273,45.62615],[9.01735,45.62042],[9.01947,45.60995],[9.01559,45.60874],[9.00378,45.60332],[9.00207,45.60145],[9.0014,45.60008],[8.9744,45.58655],[8.97268,45.58769],[8.96916,45.59542],[8.96898,45.59597],[8.97084,45.60263],[8.97071,45.60437],[8.96726,45.60828],[8.97276,45.61217],[8.97685,45.6136],[8.97821,45.61464],[8.97737,45.6155],[8.9759,45.61486],[8.97385,45.61799],[8.97499,45.61818],[8.97617,45.61738],[8.97981,45.61908],[8.98849,45.62413],[8.9924,45.62789],[8.99334,45.62822],[8.99696,45.62769]]]]}},{"type":"Feature","properties":{"nome":"Valganna","istat":"012131"},"geometry":{"type":"MultiPolygon","coordinates":[[[[8.82295,45.92968],[8.82733,45.92937],[8.82834,45.92869],[8.82972,45.92671],[8.82861,45.92509],[8.82892,45.92277],[8.8296,45.92145],[8.83049,45.92093],[8.83365,45.9203],[8.84998,45.91871],[8.84881,45.91674],[8.84458,45.91168],[8.84134,45.91004],[8.83978,45.90858],[8.8386,45.90457],[8.8379,45.90083],[8.83804,45.89514],[8.84464,45.88413],[8.83894,45.87188],[8.83524,45.87193],[8.83203,45.87272],[8.82975,45.87503],[8.82973,45.8774],[8.82857,45.87973],[8.82647,45.88241],[8.81715,45.8881],[8.80272,45.89857],[8.80229,45.90398],[8.8014,45.90593],[8.80581,45.90902],[8.80857,45.90891],[8.81016,45.91086],[8.80767,45.91629],[8.80635,45.91744],[8.811,45.91738],[8.81612,45.91871],[8.81487,45.92073],[8.81654,45.92546],[8.81944,45.92904],[8.82295,45.92968]]]]}},{"type":"Feature","properties":{"nome":"Varano Borghi","istat":"012132"},"geometry":{"type":"MultiPolygon","coordinates":[[[[8.70949,45.76099],[8.69137,45.76162],[8.69475,45.76832],[8.69283,45.77476],[8.69909,45.77604],[8.69925,45.7775],[8.69865,45.77795],[8.69982,45.78001],[8.70308,45.7819],[8.71261,45.78515],[8.71149,45.78197],[8.71087,45.77607],[8.7124,45.77497],[8.71523,45.7706],[8.71453,45.76607],[8.70949,45.76099]]]]}},{"type":"Feature","properties":{"nome":"Varese","istat":"012133"},"geometry":{"type":"MultiPolygon","coordinates":[[[[8.80667,45.88335],[8.81133,45.8826],[8.8142,45.87943],[8.8148,45.8782],[8.81556,45.87433],[8.81477,45.87087],[8.81286,45.86779],[8.81304,45.86693],[8.8155,45.86085],[8.81951,45.8606],[8.8212,45.85998],[8.82432,45.85684],[8.82213,45.84679],[8.82613,45.84058],[8.84132,45.83205],[8.86307,45.83855],[8.86447,45.83956],[8.86411,45.83637],[8.86434,45.83401],[8.86633,45.82774],[8.86733,45.8266],[8.86853,45.82636],[8.86776,45.81438],[8.86878,45.81005],[8.86718,45.80044],[8.86309,45.79526],[8.85838,45.79185],[8.8561,45.78899],[8.85672,45.78778],[8.86623,45.78392],[8.86647,45.78353],[8.86543,45.7824],[8.85891,45.77882],[8.85767,45.77855],[8.85113,45.77936],[8.84581,45.78267],[8.83436,45.79509],[8.83015,45.79042],[8.82645,45.7854],[8.82241,45.78371],[8.82018,45.78441],[8.82055,45.78502],[8.81527,45.78459],[8.80302,45.7925],[8.79537,45.79859],[8.7843,45.79642],[8.77136,45.79651],[8.74018,45.81161],[8.75517,45.82123],[8.76103,45.8232],[8.76535,45.82178],[8.76939,45.8199],[8.77308,45.81944],[8.78345,45.81998],[8.78604,45.82226],[8.79191,45.83257],[8.79061,45.83456],[8.78547,45.83904],[8.78063,45.84243],[8.77995,45.84589],[8.77503,45.84583],[8.7745,45.84884],[8.7746,45.85184],[8.77681,45.86001],[8.77759,45.86829],[8.77314,45.86961],[8.77631,45.87359],[8.78404,45.87072],[8.78881,45.87152],[8.79554,45.87508],[8.79226,45.87724],[8.79395,45.8794],[8.79732,45.88121],[8.80392,45.8838],[8.80611,45.88376],[8.80667,45.88335]]]]}},{"type":"Feature","properties":{"nome":"Vedano Olona","istat":"012134"},"geometry":{"type":"MultiPolygon","coordinates":[[[[8.89198,45.78678],[8.9004,45.78477],[8.9033,45.7826],[8.90593,45.7792],[8.90748,45.77651],[8.90608,45.76845],[8.90332,45.76635],[8.89841,45.76379],[8.89002,45.76072],[8.88858,45.75947],[8.88624,45.75529],[8.88135,45.75489],[8.88114,45.76025],[8.87892,45.7634],[8.87309,45.7643],[8.86797,45.76673],[8.87133,45.7695],[8.87189,45.7712],[8.86949,45.78076],[8.86782,45.78312],[8.87157,45.78216],[8.87655,45.78315],[8.87652,45.78396],[8.89198,45.78678]]]]}},{"type":"Feature","properties":{"nome":"Venegono Inferiore","istat":"012136"},"geometry":{"type":"MultiPolygon","coordinates":[[[[8.92355,45.75495],[8.9293,45.75432],[8.92998,45.74746],[8.92852,45.74736],[8.92607,45.74816],[8.92284,45.74547],[8.92269,45.7426],[8.92186,45.73986],[8.92021,45.73682],[8.9084,45.72876],[8.9051,45.72694],[8.89705,45.72417],[8.89491,45.72402],[8.88428,45.72591],[8.88376,45.7261],[8.88269,45.72786],[8.87915,45.72831],[8.87881,45.73636],[8.88034,45.74205],[8.88362,45.73959],[8.88436,45.73951],[8.89473,45.74114],[8.91795,45.74581],[8.9189,45.74624],[8.92175,45.75507],[8.92355,45.75495]]]]}},{"type":"Feature","properties":{"nome":"Venegono Superiore","istat":"012137"},"geometry":{"type":"MultiPolygon","coordinates":[[[[8.91477,45.76857],[8.91507,45.76716],[8.91598,45.76591],[8.92206,45.76049],[8.92209,45.75639],[8.9189,45.74624],[8.89473,45.74114],[8.88436,45.73951],[8.88362,45.73959],[8.88034,45.74205],[8.88232,45.7466],[8.88763,45.75352],[8.88624,45.75529],[8.88858,45.75947],[8.88948,45.76036],[8.89841,45.76379],[8.90332,45.76635],[8.90608,45.76845],[8.91477,45.76857]]]]}},{"type":"Feature","properties":{"nome":"Vergiate","istat":"012138"},"geometry":{"type":"MultiPolygon","coordinates":[[[[8.71354,45.76167],[8.71555,45.75949],[8.71694,45.75669],[8.71664,45.75557],[8.71683,45.75185],[8.71874,45.74893],[8.72233,45.74514],[8.72957,45.73929],[8.73118,45.73827],[8.73533,45.7375],[8.73647,45.73627],[8.72935,45.72625],[8.72187,45.71965],[8.71427,45.71379],[8.7109,45.71014],[8.70993,45.70807],[8.71022,45.70747],[8.70947,45.70769],[8.70446,45.70631],[8.69545,45.70322],[8.69496,45.70179],[8.69314,45.7001],[8.68908,45.6997],[8.68459,45.70143],[8.67646,45.70612],[8.67112,45.71087],[8.67242,45.71076],[8.6733,45.71131],[8.67832,45.71796],[8.67603,45.73442],[8.67255,45.7362],[8.67423,45.73624],[8.67603,45.73686],[8.67834,45.73875],[8.67722,45.74549],[8.6808,45.75051],[8.69137,45.76162],[8.70949,45.76099],[8.71453,45.76607],[8.71354,45.76167]]]]}},{"type":"Feature","properties":{"nome":"Viggiù","istat":"012139"},"geometry":{"type":"MultiPolygon","coordinates":[[[[8.92344,45.89381],[8.92427,45.89206],[8.92108,45.88908],[8.91695,45.88303],[8.91616,45.87942],[8.91634,45.86284],[8.91655,45.86201],[8.91836,45.86187],[8.91883,45.86098],[8.91856,45.85869],[8.90865,45.84747],[8.90417,45.84496],[8.90415,45.8419],[8.8953,45.8456],[8.88951,45.86795],[8.89006,45.87253],[8.89125,45.87598],[8.90384,45.88919],[8.90741,45.89233],[8.9117,45.89393],[8.91544,45.89465],[8.92065,45.89372],[8.92203,45.89418],[8.92224,45.89494],[8.92344,45.89381]]]]}},{"type":"Feature","properties":{"nome":"Vizzola Ticino","istat":"012140"},"geometry":{"type":"MultiPolygon","coordinates":[[[[8.67865,45.63363],[8.6852,45.6344],[8.68813,45.63188],[8.69102,45.63328],[8.69132,45.63413],[8.69202,45.63462],[8.69994,45.63683],[8.70433,45.63714],[8.7047,45.6341],[8.70141,45.63358],[8.70145,45.63291],[8.70299,45.62992],[8.70667,45.62982],[8.70921,45.61748],[8.70799,45.61749],[8.70259,45.61346],[8.6966,45.60821],[8.68819,45.6135],[8.68562,45.61762],[8.68213,45.62034],[8.67796,45.6215],[8.66621,45.62075],[8.66423,45.62111],[8.66288,45.62261],[8.66553,45.62782],[8.66594,45.63032],[8.6652,45.63155],[8.6593,45.63688],[8.65894,45.63775],[8.6594,45.64034],[8.66036,45.64186],[8.66173,45.6426],[8.66566,45.64288],[8.66887,45.64241],[8.67088,45.64149],[8.67223,45.64024],[8.67351,45.63676],[8.67452,45.63563],[8.67567,45.63477],[8.67865,45.63363]]]]}}]}